Batch,Transfer,Community,Isolate1,Isolate2,Isolate1Freq,Isolate2Freq,FileDirectory,FileName,ColonyCount,DilutionFactor
D,T8,C1R2,1,1,monoculture,monoculture,transtivity-D/pairs/D_T8_C1R2_1.tiff,D_T8_C1R2_1,81,5
D,T8,C1R2,2,2,monoculture,monoculture,transtivity-D/pairs/D_T8_C1R2_2.tiff,D_T8_C1R2_2,91,5
D,T8,C1R2,3,3,monoculture,monoculture,transtivity-D/pairs/D_T8_C1R2_3.tiff,D_T8_C1R2_3,132,5
D,T8,C1R2,4,4,monoculture,monoculture,transtivity-D/pairs/D_T8_C1R2_4.tiff,D_T8_C1R2_4,184,5
D,T8,C1R2,1,1,95,5,transtivity-D/pairs/D_T8_C1R2_5-95_1_1.tiff,D_T8_C1R2_5-95_1_1,90,5
D,T8,C1R2,1,2,95,5,transtivity-D/pairs/D_T8_C1R2_5-95_1_2.tiff,D_T8_C1R2_5-95_1_2,84,5
D,T8,C1R2,1,3,95,5,transtivity-D/pairs/D_T8_C1R2_5-95_1_3.tiff,D_T8_C1R2_5-95_1_3,90,5
D,T8,C1R2,1,4,95,5,transtivity-D/pairs/D_T8_C1R2_5-95_1_4.tiff,D_T8_C1R2_5-95_1_4,105,5
D,T8,C1R2,2,1,95,5,transtivity-D/pairs/D_T8_C1R2_5-95_2_1.tiff,D_T8_C1R2_5-95_2_1,51,5
D,T8,C1R2,2,2,95,5,transtivity-D/pairs/D_T8_C1R2_5-95_2_2.tiff,D_T8_C1R2_5-95_2_2,78,5
D,T8,C1R2,2,3,95,5,transtivity-D/pairs/D_T8_C1R2_5-95_2_3.tiff,D_T8_C1R2_5-95_2_3,193,5
D,T8,C1R2,2,4,95,5,transtivity-D/pairs/D_T8_C1R2_5-95_2_4.tiff,D_T8_C1R2_5-95_2_4,82,5
D,T8,C1R2,3,1,95,5,transtivity-D/pairs/D_T8_C1R2_5-95_3_1.tiff,D_T8_C1R2_5-95_3_1,270,5
D,T8,C1R2,3,2,95,5,transtivity-D/pairs/D_T8_C1R2_5-95_3_2.tiff,D_T8_C1R2_5-95_3_2,169,5
D,T8,C1R2,3,3,95,5,transtivity-D/pairs/D_T8_C1R2_5-95_3_3.tiff,D_T8_C1R2_5-95_3_3,227,5
D,T8,C1R2,3,4,95,5,transtivity-D/pairs/D_T8_C1R2_5-95_3_4.tiff,D_T8_C1R2_5-95_3_4,192,5
D,T8,C1R2,4,1,95,5,transtivity-D/pairs/D_T8_C1R2_5-95_4_1.tiff,D_T8_C1R2_5-95_4_1,37,5
D,T8,C1R2,4,2,95,5,transtivity-D/pairs/D_T8_C1R2_5-95_4_2.tiff,D_T8_C1R2_5-95_4_2,149,5
D,T8,C1R2,4,3,95,5,transtivity-D/pairs/D_T8_C1R2_5-95_4_3.tiff,D_T8_C1R2_5-95_4_3,147,5
D,T8,C1R2,4,4,95,5,transtivity-D/pairs/D_T8_C1R2_5-95_4_4.tiff,D_T8_C1R2_5-95_4_4,172,5
D,T8,C1R2,1,1,50,50,transtivity-D/pairs/D_T8_C1R2_50-50_1_1.tiff,D_T8_C1R2_50-50_1_1,74,5
D,T8,C1R2,1,2,50,50,transtivity-D/pairs/D_T8_C1R2_50-50_1_2.tiff,D_T8_C1R2_50-50_1_2,53,5
D,T8,C1R2,1,3,50,50,transtivity-D/pairs/D_T8_C1R2_50-50_1_3.tiff,D_T8_C1R2_50-50_1_3,203,5
D,T8,C1R2,1,4,50,50,transtivity-D/pairs/D_T8_C1R2_50-50_1_4.tiff,D_T8_C1R2_50-50_1_4,69,5
D,T8,C1R2,2,2,50,50,transtivity-D/pairs/D_T8_C1R2_50-50_2_2.tiff,D_T8_C1R2_50-50_2_2,99,5
D,T8,C1R2,2,3,50,50,transtivity-D/pairs/D_T8_C1R2_50-50_2_3.tiff,D_T8_C1R2_50-50_2_3,168,5
D,T8,C1R2,2,4,50,50,transtivity-D/pairs/D_T8_C1R2_50-50_2_4.tiff,D_T8_C1R2_50-50_2_4,103,5
D,T8,C1R2,3,3,50,50,transtivity-D/pairs/D_T8_C1R2_50-50_3_3.tiff,D_T8_C1R2_50-50_3_3,166,5
D,T8,C1R2,3,4,50,50,transtivity-D/pairs/D_T8_C1R2_50-50_3_4.tiff,D_T8_C1R2_50-50_3_4,186,5
D,T8,C1R2,4,4,50,50,transtivity-D/pairs/D_T8_C1R2_50-50_4_4.tiff,D_T8_C1R2_50-50_4_4,134,5
D,T8,C1R4,1,1,monoculture,monoculture,transtivity-D/pairs/D_T8_C1R4_1.tiff,D_T8_C1R4_1,65,5
D,T8,C1R4,2,2,monoculture,monoculture,transtivity-D/pairs/D_T8_C1R4_2.tiff,D_T8_C1R4_2,106,5
D,T8,C1R4,3,3,monoculture,monoculture,transtivity-D/pairs/D_T8_C1R4_3_-3.tiff,D_T8_C1R4_3_-3,0,3
D,T8,C1R4,3,3,monoculture,monoculture,transtivity-D/pairs/D_T8_C1R4_3_-5.tiff,D_T8_C1R4_3_-5,-1,5
D,T8,C1R4,4,4,monoculture,monoculture,transtivity-D/pairs/D_T8_C1R4_4.tiff,D_T8_C1R4_4,29,5
D,T8,C1R4,5,5,monoculture,monoculture,transtivity-D/pairs/D_T8_C1R4_5.tiff,D_T8_C1R4_5,41,5
D,T8,C1R4,1,1,95,5,transtivity-D/pairs/D_T8_C1R4_5-95_1_1.tiff,D_T8_C1R4_5-95_1_1,94,5
D,T8,C1R4,1,2,95,5,transtivity-D/pairs/D_T8_C1R4_5-95_1_2.tiff,D_T8_C1R4_5-95_1_2,93,5
D,T8,C1R4,1,3,95,5,transtivity-D/pairs/D_T8_C1R4_5-95_1_3.tiff,D_T8_C1R4_5-95_1_3,59,5
D,T8,C1R4,1,4,95,5,transtivity-D/pairs/D_T8_C1R4_5-95_1_4.tiff,D_T8_C1R4_5-95_1_4,37,5
D,T8,C1R4,1,5,95,5,transtivity-D/pairs/D_T8_C1R4_5-95_1_5.tiff,D_T8_C1R4_5-95_1_5,102,5
D,T8,C1R4,2,1,95,5,transtivity-D/pairs/D_T8_C1R4_5-95_2_1.tiff,D_T8_C1R4_5-95_2_1,144,5
D,T8,C1R4,2,2,95,5,transtivity-D/pairs/D_T8_C1R4_5-95_2_2.tiff,D_T8_C1R4_5-95_2_2,135,5
D,T8,C1R4,2,3,95,5,transtivity-D/pairs/D_T8_C1R4_5-95_2_3.tiff,D_T8_C1R4_5-95_2_3,102,5
D,T8,C1R4,2,4,95,5,transtivity-D/pairs/D_T8_C1R4_5-95_2_4.tiff,D_T8_C1R4_5-95_2_4,82,5
D,T8,C1R4,2,5,95,5,transtivity-D/pairs/D_T8_C1R4_5-95_2_5.tiff,D_T8_C1R4_5-95_2_5,52,5
D,T8,C1R4,3,1,95,5,transtivity-D/pairs/D_T8_C1R4_5-95_3_1.tiff,D_T8_C1R4_5-95_3_1,38,5
D,T8,C1R4,3,2,95,5,transtivity-D/pairs/D_T8_C1R4_5-95_3_2.tiff,D_T8_C1R4_5-95_3_2,122,5
D,T8,C1R4,3,3,95,5,transtivity-D/pairs/D_T8_C1R4_5-95_3_3.tiff,D_T8_C1R4_5-95_3_3,0,3
D,T8,C1R4,3,4,95,5,transtivity-D/pairs/D_T8_C1R4_5-95_3_4.tiff,D_T8_C1R4_5-95_3_4,19,5
D,T8,C1R4,3,5,95,5,transtivity-D/pairs/D_T8_C1R4_5-95_3_5.tiff,D_T8_C1R4_5-95_3_5,73,5
D,T8,C1R4,4,1,95,5,transtivity-D/pairs/D_T8_C1R4_5-95_4_1.tiff,D_T8_C1R4_5-95_4_1,54,5
D,T8,C1R4,4,2,95,5,transtivity-D/pairs/D_T8_C1R4_5-95_4_2.tiff,D_T8_C1R4_5-95_4_2,139,5
D,T8,C1R4,4,3,95,5,transtivity-D/pairs/D_T8_C1R4_5-95_4_3.tiff,D_T8_C1R4_5-95_4_3,52,5
D,T8,C1R4,4,4,95,5,transtivity-D/pairs/D_T8_C1R4_5-95_4_4.tiff,D_T8_C1R4_5-95_4_4,47,5
D,T8,C1R4,4,5,95,5,transtivity-D/pairs/D_T8_C1R4_5-95_4_5.tiff,D_T8_C1R4_5-95_4_5,95,5
D,T8,C1R4,5,1,95,5,transtivity-D/pairs/D_T8_C1R4_5-95_5_1.tiff,D_T8_C1R4_5-95_5_1,49,5
D,T8,C1R4,5,2,95,5,transtivity-D/pairs/D_T8_C1R4_5-95_5_2.tiff,D_T8_C1R4_5-95_5_2,142,5
D,T8,C1R4,5,3,95,5,transtivity-D/pairs/D_T8_C1R4_5-95_5_3.tiff,D_T8_C1R4_5-95_5_3,67,5
D,T8,C1R4,5,4,95,5,transtivity-D/pairs/D_T8_C1R4_5-95_5_4.tiff,D_T8_C1R4_5-95_5_4,52,5
D,T8,C1R4,5,5,95,5,transtivity-D/pairs/D_T8_C1R4_5-95_5_5.tiff,D_T8_C1R4_5-95_5_5,55,5
D,T8,C1R4,1,1,50,50,transtivity-D/pairs/D_T8_C1R4_50-50_1_1.tiff,D_T8_C1R4_50-50_1_1,68,5
D,T8,C1R4,1,2,50,50,transtivity-D/pairs/D_T8_C1R4_50-50_1_2.tiff,D_T8_C1R4_50-50_1_2,109,5
D,T8,C1R4,1,3,50,50,transtivity-D/pairs/D_T8_C1R4_50-50_1_3.tiff,D_T8_C1R4_50-50_1_3,64,5
D,T8,C1R4,1,4,50,50,transtivity-D/pairs/D_T8_C1R4_50-50_1_4.tiff,D_T8_C1R4_50-50_1_4,40,5
D,T8,C1R4,1,5,50,50,transtivity-D/pairs/D_T8_C1R4_50-50_1_5.tiff,D_T8_C1R4_50-50_1_5,66,5
D,T8,C1R4,2,2,50,50,transtivity-D/pairs/D_T8_C1R4_50-50_2_2.tiff,D_T8_C1R4_50-50_2_2,76,5
D,T8,C1R4,2,3,50,50,transtivity-D/pairs/D_T8_C1R4_50-50_2_3.tiff,D_T8_C1R4_50-50_2_3,88,5
D,T8,C1R4,2,4,50,50,transtivity-D/pairs/D_T8_C1R4_50-50_2_4.tiff,D_T8_C1R4_50-50_2_4,75,5
D,T8,C1R4,2,5,50,50,transtivity-D/pairs/D_T8_C1R4_50-50_2_5.tiff,D_T8_C1R4_50-50_2_5,86,5
D,T8,C1R4,3,3,50,50,transtivity-D/pairs/D_T8_C1R4_50-50_3_3.tiff,D_T8_C1R4_50-50_3_3,-1,3
D,T8,C1R4,3,4,50,50,transtivity-D/pairs/D_T8_C1R4_50-50_3_4.tiff,D_T8_C1R4_50-50_3_4,41,5
D,T8,C1R4,3,5,50,50,transtivity-D/pairs/D_T8_C1R4_50-50_3_5.tiff,D_T8_C1R4_50-50_3_5,46,5
D,T8,C1R4,4,4,50,50,transtivity-D/pairs/D_T8_C1R4_50-50_4_4.tiff,D_T8_C1R4_50-50_4_4,36,5
D,T8,C1R4,4,5,50,50,transtivity-D/pairs/D_T8_C1R4_50-50_4_5.tiff,D_T8_C1R4_50-50_4_5,47,5
D,T8,C1R4,5,5,50,50,transtivity-D/pairs/D_T8_C1R4_50-50_5_5.tiff,D_T8_C1R4_50-50_5_5,61,5
D,T8,C1R6,1,1,monoculture,monoculture,transtivity-D/pairs/D_T8_C1R6_1.tiff,D_T8_C1R6_1,49,5
D,T8,C1R6,2,2,monoculture,monoculture,transtivity-D/pairs/D_T8_C1R6_2.tiff,D_T8_C1R6_2,104,5
D,T8,C1R6,3,3,monoculture,monoculture,transtivity-D/pairs/D_T8_C1R6_3.tiff,D_T8_C1R6_3,100,5
D,T8,C1R6,4,4,monoculture,monoculture,transtivity-D/pairs/D_T8_C1R6_4.tiff,D_T8_C1R6_4,127,5
D,T8,C1R6,5,5,monoculture,monoculture,transtivity-D/pairs/D_T8_C1R6_5.tiff,D_T8_C1R6_5,71,5
D,T8,C1R6,1,1,95,5,transtivity-D/pairs/D_T8_C1R6_5-95_1_1.tiff,D_T8_C1R6_5-95_1_1,27,5
D,T8,C1R6,1,2,95,5,transtivity-D/pairs/D_T8_C1R6_5-95_1_2.tiff,D_T8_C1R6_5-95_1_2,78,5
D,T8,C1R6,1,3,95,5,transtivity-D/pairs/D_T8_C1R6_5-95_1_3.tiff,D_T8_C1R6_5-95_1_3,37,5
D,T8,C1R6,1,4,95,5,transtivity-D/pairs/D_T8_C1R6_5-95_1_4.tiff,D_T8_C1R6_5-95_1_4,127,5
D,T8,C1R6,1,5,95,5,transtivity-D/pairs/D_T8_C1R6_5-95_1_5.tiff,D_T8_C1R6_5-95_1_5,45,5
D,T8,C1R6,2,1,95,5,transtivity-D/pairs/D_T8_C1R6_5-95_2_1.tiff,D_T8_C1R6_5-95_2_1,90,5
D,T8,C1R6,2,2,95,5,transtivity-D/pairs/D_T8_C1R6_5-95_2_2.tiff,D_T8_C1R6_5-95_2_2,83,5
D,T8,C1R6,2,3,95,5,transtivity-D/pairs/D_T8_C1R6_5-95_2_3.tiff,D_T8_C1R6_5-95_2_3,90,5
D,T8,C1R6,2,4,95,5,transtivity-D/pairs/D_T8_C1R6_5-95_2_4.tiff,D_T8_C1R6_5-95_2_4,140,5
D,T8,C1R6,2,5,95,5,transtivity-D/pairs/D_T8_C1R6_5-95_2_5.tiff,D_T8_C1R6_5-95_2_5,76,5
D,T8,C1R6,3,1,95,5,transtivity-D/pairs/D_T8_C1R6_5-95_3_1.tiff,D_T8_C1R6_5-95_3_1,53,5
D,T8,C1R6,3,2,95,5,transtivity-D/pairs/D_T8_C1R6_5-95_3_2.tiff,D_T8_C1R6_5-95_3_2,94,5
D,T8,C1R6,3,3,95,5,transtivity-D/pairs/D_T8_C1R6_5-95_3_3.tiff,D_T8_C1R6_5-95_3_3,31,5
D,T8,C1R6,3,4,95,5,transtivity-D/pairs/D_T8_C1R6_5-95_3_4.tiff,D_T8_C1R6_5-95_3_4,100,5
D,T8,C1R6,3,5,95,5,transtivity-D/pairs/D_T8_C1R6_5-95_3_5.tiff,D_T8_C1R6_5-95_3_5,100,5
D,T8,C1R6,4,1,95,5,transtivity-D/pairs/D_T8_C1R6_5-95_4_1.tiff,D_T8_C1R6_5-95_4_1,93,5
D,T8,C1R6,4,2,95,5,transtivity-D/pairs/D_T8_C1R6_5-95_4_2.tiff,D_T8_C1R6_5-95_4_2,121,5
D,T8,C1R6,4,3,95,5,transtivity-D/pairs/D_T8_C1R6_5-95_4_3.tiff,D_T8_C1R6_5-95_4_3,133,5
D,T8,C1R6,4,4,95,5,transtivity-D/pairs/D_T8_C1R6_5-95_4_4.tiff,D_T8_C1R6_5-95_4_4,106,5
D,T8,C1R6,4,5,95,5,transtivity-D/pairs/D_T8_C1R6_5-95_4_5.tiff,D_T8_C1R6_5-95_4_5,113,5
D,T8,C1R6,5,1,95,5,transtivity-D/pairs/D_T8_C1R6_5-95_5_1.tiff,D_T8_C1R6_5-95_5_1,50,5
D,T8,C1R6,5,2,95,5,transtivity-D/pairs/D_T8_C1R6_5-95_5_2.tiff,D_T8_C1R6_5-95_5_2,82,5
D,T8,C1R6,5,3,95,5,transtivity-D/pairs/D_T8_C1R6_5-95_5_3.tiff,D_T8_C1R6_5-95_5_3,49,5
D,T8,C1R6,5,4,95,5,transtivity-D/pairs/D_T8_C1R6_5-95_5_4.tiff,D_T8_C1R6_5-95_5_4,58,5
D,T8,C1R6,5,5,95,5,transtivity-D/pairs/D_T8_C1R6_5-95_5_5.tiff,D_T8_C1R6_5-95_5_5,73,5
D,T8,C1R6,1,1,50,50,transtivity-D/pairs/D_T8_C1R6_50-50_1_1.tiff,D_T8_C1R6_50-50_1_1,78,5
D,T8,C1R6,1,2,50,50,transtivity-D/pairs/D_T8_C1R6_50-50_1_2.tiff,D_T8_C1R6_50-50_1_2,78,5
D,T8,C1R6,1,3,50,50,transtivity-D/pairs/D_T8_C1R6_50-50_1_3.tiff,D_T8_C1R6_50-50_1_3,24,5
D,T8,C1R6,1,4,50,50,transtivity-D/pairs/D_T8_C1R6_50-50_1_4.tiff,D_T8_C1R6_50-50_1_4,122,5
D,T8,C1R6,1,5,50,50,transtivity-D/pairs/D_T8_C1R6_50-50_1_5.tiff,D_T8_C1R6_50-50_1_5,59,5
D,T8,C1R6,2,2,50,50,transtivity-D/pairs/D_T8_C1R6_50-50_2_2.tiff,D_T8_C1R6_50-50_2_2,62,5
D,T8,C1R6,2,3,50,50,transtivity-D/pairs/D_T8_C1R6_50-50_2_3.tiff,D_T8_C1R6_50-50_2_3,95,5
D,T8,C1R6,2,4,50,50,transtivity-D/pairs/D_T8_C1R6_50-50_2_4.tiff,D_T8_C1R6_50-50_2_4,65,5
D,T8,C1R6,2,5,50,50,transtivity-D/pairs/D_T8_C1R6_50-50_2_5.tiff,D_T8_C1R6_50-50_2_5,148,5
D,T8,C1R6,3,3,50,50,transtivity-D/pairs/D_T8_C1R6_50-50_3_3.tiff,D_T8_C1R6_50-50_3_3,47,5
D,T8,C1R6,3,4,50,50,transtivity-D/pairs/D_T8_C1R6_50-50_3_4.tiff,D_T8_C1R6_50-50_3_4,120,5
D,T8,C1R6,3,5,50,50,transtivity-D/pairs/D_T8_C1R6_50-50_3_5.tiff,D_T8_C1R6_50-50_3_5,61,5
D,T8,C1R6,4,4,50,50,transtivity-D/pairs/D_T8_C1R6_50-50_4_4.tiff,D_T8_C1R6_50-50_4_4,158,5
D,T8,C1R6,4,5,50,50,transtivity-D/pairs/D_T8_C1R6_50-50_4_5.tiff,D_T8_C1R6_50-50_4_5,83,5
D,T8,C1R6,5,5,50,50,transtivity-D/pairs/D_T8_C1R6_50-50_5_5.tiff,D_T8_C1R6_50-50_5_5,51,5
D,T8,C1R7,1,1,monoculture,monoculture,transtivity-D/pairs/D_T8_C1R7_1.tiff,D_T8_C1R7_1,133,5
D,T8,C1R7,2,2,monoculture,monoculture,transtivity-D/pairs/D_T8_C1R7_2.tiff,D_T8_C1R7_2,41,5
D,T8,C1R7,3,3,monoculture,monoculture,transtivity-D/pairs/D_T8_C1R7_3.tiff,D_T8_C1R7_3,37,5
D,T8,C1R7,4,4,monoculture,monoculture,transtivity-D/pairs/D_T8_C1R7_4.tiff,D_T8_C1R7_4,169,5
D,T8,C1R7,5,5,monoculture,monoculture,transtivity-D/pairs/D_T8_C1R7_5.tiff,D_T8_C1R7_5,56,5
D,T8,C1R7,6,6,monoculture,monoculture,transtivity-D/pairs/D_T8_C1R7_6.tiff,D_T8_C1R7_6,51,5
D,T8,C1R7,7,7,monoculture,monoculture,transtivity-D/pairs/D_T8_C1R7_7.tiff,D_T8_C1R7_7,519,5
D,T8,C1R7,1,1,95,5,transtivity-D/pairs/D_T8_C1R7_5-95_1_1.tiff,D_T8_C1R7_5-95_1_1,115,5
D,T8,C1R7,1,2,95,5,transtivity-D/pairs/D_T8_C1R7_5-95_1_2.tiff,D_T8_C1R7_5-95_1_2,133,5
D,T8,C1R7,1,3,95,5,transtivity-D/pairs/D_T8_C1R7_5-95_1_3.tiff,D_T8_C1R7_5-95_1_3,107,5
D,T8,C1R7,1,4,95,5,transtivity-D/pairs/D_T8_C1R7_5-95_1_4.tiff,D_T8_C1R7_5-95_1_4,105,5
D,T8,C1R7,1,5,95,5,transtivity-D/pairs/D_T8_C1R7_5-95_1_5.tiff,D_T8_C1R7_5-95_1_5,96,5
D,T8,C1R7,1,6,95,5,transtivity-D/pairs/D_T8_C1R7_5-95_1_6.tiff,D_T8_C1R7_5-95_1_6,137,5
D,T8,C1R7,1,7,95,5,transtivity-D/pairs/D_T8_C1R7_5-95_1_7.tiff,D_T8_C1R7_5-95_1_7,134,5
D,T8,C1R7,2,1,95,5,transtivity-D/pairs/D_T8_C1R7_5-95_2_1.tiff,D_T8_C1R7_5-95_2_1,105,5
D,T8,C1R7,2,2,95,5,transtivity-D/pairs/D_T8_C1R7_5-95_2_2.tiff,D_T8_C1R7_5-95_2_2,39,5
D,T8,C1R7,2,3,95,5,transtivity-D/pairs/D_T8_C1R7_5-95_2_3.tiff,D_T8_C1R7_5-95_2_3,30,5
D,T8,C1R7,2,4,95,5,transtivity-D/pairs/D_T8_C1R7_5-95_2_4.tiff,D_T8_C1R7_5-95_2_4,131,5
D,T8,C1R7,2,5,95,5,transtivity-D/pairs/D_T8_C1R7_5-95_2_5.tiff,D_T8_C1R7_5-95_2_5,47,5
D,T8,C1R7,2,6,95,5,transtivity-D/pairs/D_T8_C1R7_5-95_2_6.tiff,D_T8_C1R7_5-95_2_6,60,5
D,T8,C1R7,2,7,95,5,transtivity-D/pairs/D_T8_C1R7_5-95_2_7.tiff,D_T8_C1R7_5-95_2_7,128,5
D,T8,C1R7,3,1,95,5,transtivity-D/pairs/D_T8_C1R7_5-95_3_1.tiff,D_T8_C1R7_5-95_3_1,119,5
D,T8,C1R7,3,2,95,5,transtivity-D/pairs/D_T8_C1R7_5-95_3_2.tiff,D_T8_C1R7_5-95_3_2,34,5
D,T8,C1R7,3,3,95,5,transtivity-D/pairs/D_T8_C1R7_5-95_3_3.tiff,D_T8_C1R7_5-95_3_3,16,5
D,T8,C1R7,3,4,95,5,transtivity-D/pairs/D_T8_C1R7_5-95_3_4.tiff,D_T8_C1R7_5-95_3_4,83,5
D,T8,C1R7,3,5,95,5,transtivity-D/pairs/D_T8_C1R7_5-95_3_5.tiff,D_T8_C1R7_5-95_3_5,27,5
D,T8,C1R7,3,6,95,5,transtivity-D/pairs/D_T8_C1R7_5-95_3_6.tiff,D_T8_C1R7_5-95_3_6,52,5
D,T8,C1R7,3,7,95,5,transtivity-D/pairs/D_T8_C1R7_5-95_3_7.tiff,D_T8_C1R7_5-95_3_7,69,5
D,T8,C1R7,4,1,95,5,transtivity-D/pairs/D_T8_C1R7_5-95_4_1.tiff,D_T8_C1R7_5-95_4_1,161,5
D,T8,C1R7,4,2,95,5,transtivity-D/pairs/D_T8_C1R7_5-95_4_2.tiff,D_T8_C1R7_5-95_4_2,139,5
D,T8,C1R7,4,3,95,5,transtivity-D/pairs/D_T8_C1R7_5-95_4_3.tiff,D_T8_C1R7_5-95_4_3,127,5
D,T8,C1R7,4,4,95,5,transtivity-D/pairs/D_T8_C1R7_5-95_4_4.tiff,D_T8_C1R7_5-95_4_4,158,5
D,T8,C1R7,4,5,95,5,transtivity-D/pairs/D_T8_C1R7_5-95_4_5.tiff,D_T8_C1R7_5-95_4_5,169,5
D,T8,C1R7,4,6,95,5,transtivity-D/pairs/D_T8_C1R7_5-95_4_6.tiff,D_T8_C1R7_5-95_4_6,178,5
D,T8,C1R7,4,7,95,5,transtivity-D/pairs/D_T8_C1R7_5-95_4_7.tiff,D_T8_C1R7_5-95_4_7,131,5
D,T8,C1R7,5,1,95,5,transtivity-D/pairs/D_T8_C1R7_5-95_5_1.tiff,D_T8_C1R7_5-95_5_1,117,5
D,T8,C1R7,5,2,95,5,transtivity-D/pairs/D_T8_C1R7_5-95_5_2.tiff,D_T8_C1R7_5-95_5_2,84,5
D,T8,C1R7,5,3,95,5,transtivity-D/pairs/D_T8_C1R7_5-95_5_3.tiff,D_T8_C1R7_5-95_5_3,35,5
D,T8,C1R7,5,4,95,5,transtivity-D/pairs/D_T8_C1R7_5-95_5_4.tiff,D_T8_C1R7_5-95_5_4,79,5
D,T8,C1R7,5,5,95,5,transtivity-D/pairs/D_T8_C1R7_5-95_5_5.tiff,D_T8_C1R7_5-95_5_5,50,5
D,T8,C1R7,5,6,95,5,transtivity-D/pairs/D_T8_C1R7_5-95_5_6.tiff,D_T8_C1R7_5-95_5_6,55,5
D,T8,C1R7,5,7,95,5,transtivity-D/pairs/D_T8_C1R7_5-95_5_7.tiff,D_T8_C1R7_5-95_5_7,123,5
D,T8,C1R7,6,1,95,5,transtivity-D/pairs/D_T8_C1R7_5-95_6_1.tiff,D_T8_C1R7_5-95_6_1,151,5
D,T8,C1R7,6,2,95,5,transtivity-D/pairs/D_T8_C1R7_5-95_6_2.tiff,D_T8_C1R7_5-95_6_2,41,5
D,T8,C1R7,6,3,95,5,transtivity-D/pairs/D_T8_C1R7_5-95_6_3.tiff,D_T8_C1R7_5-95_6_3,55,5
D,T8,C1R7,6,4,95,5,transtivity-D/pairs/D_T8_C1R7_5-95_6_4.tiff,D_T8_C1R7_5-95_6_4,129,5
D,T8,C1R7,6,5,95,5,transtivity-D/pairs/D_T8_C1R7_5-95_6_5.tiff,D_T8_C1R7_5-95_6_5,56,5
D,T8,C1R7,6,6,95,5,transtivity-D/pairs/D_T8_C1R7_5-95_6_6.tiff,D_T8_C1R7_5-95_6_6,60,5
D,T8,C1R7,6,7,95,5,transtivity-D/pairs/D_T8_C1R7_5-95_6_7.tiff,D_T8_C1R7_5-95_6_7,145,5
D,T8,C1R7,7,1,95,5,transtivity-D/pairs/D_T8_C1R7_5-95_7_1.tiff,D_T8_C1R7_5-95_7_1,127,5
D,T8,C1R7,7,2,95,5,transtivity-D/pairs/D_T8_C1R7_5-95_7_2.tiff,D_T8_C1R7_5-95_7_2,103,5
D,T8,C1R7,7,3,95,5,transtivity-D/pairs/D_T8_C1R7_5-95_7_3.tiff,D_T8_C1R7_5-95_7_3,116,5
D,T8,C1R7,7,4,95,5,transtivity-D/pairs/D_T8_C1R7_5-95_7_4.tiff,D_T8_C1R7_5-95_7_4,146,5
D,T8,C1R7,7,5,95,5,transtivity-D/pairs/D_T8_C1R7_5-95_7_5.tiff,D_T8_C1R7_5-95_7_5,117,5
D,T8,C1R7,7,6,95,5,transtivity-D/pairs/D_T8_C1R7_5-95_7_6.tiff,D_T8_C1R7_5-95_7_6,128,5
D,T8,C1R7,7,7,95,5,transtivity-D/pairs/D_T8_C1R7_5-95_7_7.tiff,D_T8_C1R7_5-95_7_7,129,5
D,T8,C1R7,1,1,50,50,transtivity-D/pairs/D_T8_C1R7_50-50_1_1.tiff,D_T8_C1R7_50-50_1_1,143,5
D,T8,C1R7,1,2,50,50,transtivity-D/pairs/D_T8_C1R7_50-50_1_2.tiff,D_T8_C1R7_50-50_1_2,142,5
D,T8,C1R7,1,3,50,50,transtivity-D/pairs/D_T8_C1R7_50-50_1_3.tiff,D_T8_C1R7_50-50_1_3,91,5
D,T8,C1R7,1,4,50,50,transtivity-D/pairs/D_T8_C1R7_50-50_1_4.tiff,D_T8_C1R7_50-50_1_4,84,5
D,T8,C1R7,1,5,50,50,transtivity-D/pairs/D_T8_C1R7_50-50_1_5.tiff,D_T8_C1R7_50-50_1_5,88,5
D,T8,C1R7,1,6,50,50,transtivity-D/pairs/D_T8_C1R7_50-50_1_6.tiff,D_T8_C1R7_50-50_1_6,91,5
D,T8,C1R7,1,7,50,50,transtivity-D/pairs/D_T8_C1R7_50-50_1_7.tiff,D_T8_C1R7_50-50_1_7,132,5
D,T8,C1R7,2,2,50,50,transtivity-D/pairs/D_T8_C1R7_50-50_2_2.tiff,D_T8_C1R7_50-50_2_2,52,5
D,T8,C1R7,2,3,50,50,transtivity-D/pairs/D_T8_C1R7_50-50_2_3.tiff,D_T8_C1R7_50-50_2_3,49,5
D,T8,C1R7,2,4,50,50,transtivity-D/pairs/D_T8_C1R7_50-50_2_4.tiff,D_T8_C1R7_50-50_2_4,173,5
D,T8,C1R7,2,5,50,50,transtivity-D/pairs/D_T8_C1R7_50-50_2_5.tiff,D_T8_C1R7_50-50_2_5,34,5
D,T8,C1R7,2,6,50,50,transtivity-D/pairs/D_T8_C1R7_50-50_2_6.tiff,D_T8_C1R7_50-50_2_6,43,5
D,T8,C1R7,2,7,50,50,transtivity-D/pairs/D_T8_C1R7_50-50_2_7.tiff,D_T8_C1R7_50-50_2_7,105,5
D,T8,C1R7,3,3,50,50,transtivity-D/pairs/D_T8_C1R7_50-50_3_3.tiff,D_T8_C1R7_50-50_3_3,23,5
D,T8,C1R7,3,4,50,50,transtivity-D/pairs/D_T8_C1R7_50-50_3_4.tiff,D_T8_C1R7_50-50_3_4,95,5
D,T8,C1R7,3,5,50,50,transtivity-D/pairs/D_T8_C1R7_50-50_3_5.tiff,D_T8_C1R7_50-50_3_5,34,5
D,T8,C1R7,3,6,50,50,transtivity-D/pairs/D_T8_C1R7_50-50_3_6.tiff,D_T8_C1R7_50-50_3_6,34,5
D,T8,C1R7,3,7,50,50,transtivity-D/pairs/D_T8_C1R7_50-50_3_7.tiff,D_T8_C1R7_50-50_3_7,145,5
D,T8,C1R7,4,4,50,50,transtivity-D/pairs/D_T8_C1R7_50-50_4_4.tiff,D_T8_C1R7_50-50_4_4,178,5
D,T8,C1R7,4,5,50,50,transtivity-D/pairs/D_T8_C1R7_50-50_4_5.tiff,D_T8_C1R7_50-50_4_5,142,5
D,T8,C1R7,4,6,50,50,transtivity-D/pairs/D_T8_C1R7_50-50_4_6.tiff,D_T8_C1R7_50-50_4_6,145,5
D,T8,C1R7,4,7,50,50,transtivity-D/pairs/D_T8_C1R7_50-50_4_7.tiff,D_T8_C1R7_50-50_4_7,140,5
D,T8,C1R7,5,5,50,50,transtivity-D/pairs/D_T8_C1R7_50-50_5_5.tiff,D_T8_C1R7_50-50_5_5,32,5
D,T8,C1R7,5,6,50,50,transtivity-D/pairs/D_T8_C1R7_50-50_5_6.tiff,D_T8_C1R7_50-50_5_6,48,5
D,T8,C1R7,5,7,50,50,transtivity-D/pairs/D_T8_C1R7_50-50_5_7.tiff,D_T8_C1R7_50-50_5_7,140,5
D,T8,C1R7,6,6,50,50,transtivity-D/pairs/D_T8_C1R7_50-50_6_6.tiff,D_T8_C1R7_50-50_6_6,24,5
D,T8,C1R7,6,7,50,50,transtivity-D/pairs/D_T8_C1R7_50-50_6_7.tiff,D_T8_C1R7_50-50_6_7,144,5
D,T8,C1R7,7,7,50,50,transtivity-D/pairs/D_T8_C1R7_50-50_7_7.tiff,D_T8_C1R7_50-50_7_7,141,5
B2,T8,C2R6,1,1,monoculture,monoculture,transtivity-B2/pairs/B2_T8_C2R6_1.tiff,B2_T8_C2R6_1,72,5
B2,T8,C2R6,2,2,monoculture,monoculture,transtivity-B2/pairs/B2_T8_C2R6_2.tiff,B2_T8_C2R6_2,46,5
B2,T8,C2R6,3,3,monoculture,monoculture,transtivity-B2/pairs/B2_T8_C2R6_3.tiff,B2_T8_C2R6_3,115,5
B2,T8,C2R6,4,4,monoculture,monoculture,transtivity-B2/pairs/B2_T8_C2R6_4.tiff,B2_T8_C2R6_4,25,5
B2,T8,C2R6,1,1,95,5,transtivity-B2/pairs/B2_T8_C2R6_5-95_1_1.tiff,B2_T8_C2R6_5-95_1_1,48,5
B2,T8,C2R6,1,2,95,5,transtivity-B2/pairs/B2_T8_C2R6_5-95_1_2.tiff,B2_T8_C2R6_5-95_1_2,44,5
B2,T8,C2R6,1,3,95,5,transtivity-B2/pairs/B2_T8_C2R6_5-95_1_3.tiff,B2_T8_C2R6_5-95_1_3,39,5
B2,T8,C2R6,1,4,95,5,transtivity-B2/pairs/B2_T8_C2R6_5-95_1_4.tiff,B2_T8_C2R6_5-95_1_4,25,5
B2,T8,C2R6,2,1,95,5,transtivity-B2/pairs/B2_T8_C2R6_5-95_2_1.tiff,B2_T8_C2R6_5-95_2_1,47,5
B2,T8,C2R6,2,2,95,5,transtivity-B2/pairs/B2_T8_C2R6_5-95_2_2.tiff,B2_T8_C2R6_5-95_2_2,32,5
B2,T8,C2R6,2,3,95,5,transtivity-B2/pairs/B2_T8_C2R6_5-95_2_3.tiff,B2_T8_C2R6_5-95_2_3,34,5
B2,T8,C2R6,2,4,95,5,transtivity-B2/pairs/B2_T8_C2R6_5-95_2_4.tiff,B2_T8_C2R6_5-95_2_4,20,5
B2,T8,C2R6,3,1,95,5,transtivity-B2/pairs/B2_T8_C2R6_5-95_3_1.tiff,B2_T8_C2R6_5-95_3_1,61,5
B2,T8,C2R6,3,2,95,5,transtivity-B2/pairs/B2_T8_C2R6_5-95_3_2.tiff,B2_T8_C2R6_5-95_3_2,46,5
B2,T8,C2R6,3,3,95,5,transtivity-B2/pairs/B2_T8_C2R6_5-95_3_3.tiff,B2_T8_C2R6_5-95_3_3,41,5
B2,T8,C2R6,3,4,95,5,transtivity-B2/pairs/B2_T8_C2R6_5-95_3_4.tiff,B2_T8_C2R6_5-95_3_4,50,5
B2,T8,C2R6,4,1,95,5,transtivity-B2/pairs/B2_T8_C2R6_5-95_4_1.tiff,B2_T8_C2R6_5-95_4_1,21,5
B2,T8,C2R6,4,2,95,5,transtivity-B2/pairs/B2_T8_C2R6_5-95_4_2.tiff,B2_T8_C2R6_5-95_4_2,30,5
B2,T8,C2R6,4,3,95,5,transtivity-B2/pairs/B2_T8_C2R6_5-95_4_3.tiff,B2_T8_C2R6_5-95_4_3,13,5
B2,T8,C2R6,4,4,95,5,transtivity-B2/pairs/B2_T8_C2R6_5-95_4_4.tiff,B2_T8_C2R6_5-95_4_4,31,5
B2,T8,C2R6,1,1,50,50,transtivity-B2/pairs/B2_T8_C2R6_50-50_1_1.tiff,B2_T8_C2R6_50-50_1_1,69,5
B2,T8,C2R6,1,2,50,50,transtivity-B2/pairs/B2_T8_C2R6_50-50_1_2.tiff,B2_T8_C2R6_50-50_1_2,40,5
B2,T8,C2R6,1,3,50,50,transtivity-B2/pairs/B2_T8_C2R6_50-50_1_3.tiff,B2_T8_C2R6_50-50_1_3,35,5
B2,T8,C2R6,1,4,50,50,transtivity-B2/pairs/B2_T8_C2R6_50-50_1_4.tiff,B2_T8_C2R6_50-50_1_4,16,5
B2,T8,C2R6,2,2,50,50,transtivity-B2/pairs/B2_T8_C2R6_50-50_2_2.tiff,B2_T8_C2R6_50-50_2_2,36,5
B2,T8,C2R6,2,3,50,50,transtivity-B2/pairs/B2_T8_C2R6_50-50_2_3.tiff,B2_T8_C2R6_50-50_2_3,100,5
B2,T8,C2R6,2,4,50,50,transtivity-B2/pairs/B2_T8_C2R6_50-50_2_4.tiff,B2_T8_C2R6_50-50_2_4,30,5
B2,T8,C2R6,3,3,50,50,transtivity-B2/pairs/B2_T8_C2R6_50-50_3_3.tiff,B2_T8_C2R6_50-50_3_3,-1,5
B2,T8,C2R6,3,4,50,50,transtivity-B2/pairs/B2_T8_C2R6_50-50_3_4.tiff,B2_T8_C2R6_50-50_3_4,14,5
B2,T8,C2R6,4,4,50,50,transtivity-B2/pairs/B2_T8_C2R6_50-50_4_4.tiff,B2_T8_C2R6_50-50_4_4,26,5
B2,T8,C2R8,1,1,monoculture,monoculture,transtivity-B2/pairs/B2_T8_C2R8_1.tiff,B2_T8_C2R8_1,47,5
B2,T8,C2R8,2,2,monoculture,monoculture,transtivity-B2/pairs/B2_T8_C2R8_2.tiff,B2_T8_C2R8_2,71,5
B2,T8,C2R8,3,3,monoculture,monoculture,transtivity-B2/pairs/B2_T8_C2R8_3.tiff,B2_T8_C2R8_3,12,5
B2,T8,C2R8,4,4,monoculture,monoculture,transtivity-B2/pairs/B2_T8_C2R8_4.tiff,B2_T8_C2R8_4,4,5
B2,T8,C2R8,1,1,95,5,transtivity-B2/pairs/B2_T8_C2R8_5-95_1_1.tiff,B2_T8_C2R8_5-95_1_1,76,5
B2,T8,C2R8,1,2,95,5,transtivity-B2/pairs/B2_T8_C2R8_5-95_1_2.tiff,B2_T8_C2R8_5-95_1_2,42,5
B2,T8,C2R8,1,3,95,5,transtivity-B2/pairs/B2_T8_C2R8_5-95_1_3.tiff,B2_T8_C2R8_5-95_1_3,38,5
B2,T8,C2R8,1,4,95,5,transtivity-B2/pairs/B2_T8_C2R8_5-95_1_4.tiff,B2_T8_C2R8_5-95_1_4,69,5
B2,T8,C2R8,2,1,95,5,transtivity-B2/pairs/B2_T8_C2R8_5-95_2_1.tiff,B2_T8_C2R8_5-95_2_1,18,5
B2,T8,C2R8,2,2,95,5,transtivity-B2/pairs/B2_T8_C2R8_5-95_2_2.tiff,B2_T8_C2R8_5-95_2_2,17,5
B2,T8,C2R8,2,3,95,5,transtivity-B2/pairs/B2_T8_C2R8_5-95_2_3.tiff,B2_T8_C2R8_5-95_2_3,49,5
B2,T8,C2R8,2,4,95,5,transtivity-B2/pairs/B2_T8_C2R8_5-95_2_4.tiff,B2_T8_C2R8_5-95_2_4,40,5
B2,T8,C2R8,3,1,95,5,transtivity-B2/pairs/B2_T8_C2R8_5-95_3_1.tiff,B2_T8_C2R8_5-95_3_1,64,5
B2,T8,C2R8,3,2,95,5,transtivity-B2/pairs/B2_T8_C2R8_5-95_3_2.tiff,B2_T8_C2R8_5-95_3_2,41,5
B2,T8,C2R8,3,3,95,5,transtivity-B2/pairs/B2_T8_C2R8_5-95_3_3.tiff,B2_T8_C2R8_5-95_3_3,4,5
B2,T8,C2R8,3,4,95,5,transtivity-B2/pairs/B2_T8_C2R8_5-95_3_4.tiff,B2_T8_C2R8_5-95_3_4,15,5
B2,T8,C2R8,4,1,95,5,transtivity-B2/pairs/B2_T8_C2R8_5-95_4_1.tiff,B2_T8_C2R8_5-95_4_1,40,5
B2,T8,C2R8,4,2,95,5,transtivity-B2/pairs/B2_T8_C2R8_5-95_4_2.tiff,B2_T8_C2R8_5-95_4_2,34,5
B2,T8,C2R8,4,3,95,5,transtivity-B2/pairs/B2_T8_C2R8_5-95_4_3.tiff,B2_T8_C2R8_5-95_4_3,12,5
B2,T8,C2R8,4,4,95,5,transtivity-B2/pairs/B2_T8_C2R8_5-95_4_4.tiff,B2_T8_C2R8_5-95_4_4,9,5
B2,T8,C2R8,1,1,50,50,transtivity-B2/pairs/B2_T8_C2R8_50-50_1_1.tiff,B2_T8_C2R8_50-50_1_1,72,5
B2,T8,C2R8,1,2,50,50,transtivity-B2/pairs/B2_T8_C2R8_50-50_1_2.tiff,B2_T8_C2R8_50-50_1_2,21,5
B2,T8,C2R8,1,3,50,50,transtivity-B2/pairs/B2_T8_C2R8_50-50_1_3.tiff,B2_T8_C2R8_50-50_1_3,45,5
B2,T8,C2R8,1,4,50,50,transtivity-B2/pairs/B2_T8_C2R8_50-50_1_4.tiff,B2_T8_C2R8_50-50_1_4,46,5
B2,T8,C2R8,2,2,50,50,transtivity-B2/pairs/B2_T8_C2R8_50-50_2_2.tiff,B2_T8_C2R8_50-50_2_2,44,5
B2,T8,C2R8,2,3,50,50,transtivity-B2/pairs/B2_T8_C2R8_50-50_2_3.tiff,B2_T8_C2R8_50-50_2_3,37,5
B2,T8,C2R8,2,4,50,50,transtivity-B2/pairs/B2_T8_C2R8_50-50_2_4.tiff,B2_T8_C2R8_50-50_2_4,35,5
B2,T8,C2R8,3,3,50,50,transtivity-B2/pairs/B2_T8_C2R8_50-50_3_3.tiff,B2_T8_C2R8_50-50_3_3,8,5
B2,T8,C2R8,3,4,50,50,transtivity-B2/pairs/B2_T8_C2R8_50-50_3_4.tiff,B2_T8_C2R8_50-50_3_4,11,5
B2,T8,C2R8,4,4,50,50,transtivity-B2/pairs/B2_T8_C2R8_50-50_4_4.tiff,B2_T8_C2R8_50-50_4_4,24,5
D,T8,C4R1,1,1,monoculture,monoculture,transtivity-D/pairs/D_T8_C4R1_1.tiff,D_T8_C4R1_1,48,4
D,T8,C4R1,2,2,monoculture,monoculture,transtivity-D/pairs/D_T8_C4R1_2.tiff,D_T8_C4R1_2,149,5
D,T8,C4R1,3,3,monoculture,monoculture,transtivity-D/pairs/D_T8_C4R1_3.tiff,D_T8_C4R1_3,29,4
D,T8,C4R1,1,1,95,5,transtivity-D/pairs/D_T8_C4R1_5-95_1_1.tiff,D_T8_C4R1_5-95_1_1,113,4
D,T8,C4R1,1,2,95,5,transtivity-D/pairs/D_T8_C4R1_5-95_1_2.tiff,D_T8_C4R1_5-95_1_2,69,5
D,T8,C4R1,1,3,95,5,transtivity-D/pairs/D_T8_C4R1_5-95_1_3.tiff,D_T8_C4R1_5-95_1_3,116,4
D,T8,C4R1,2,1,95,5,transtivity-D/pairs/D_T8_C4R1_5-95_2_1.tiff,D_T8_C4R1_5-95_2_1,164,5
D,T8,C4R1,2,2,95,5,transtivity-D/pairs/D_T8_C4R1_5-95_2_2.tiff,D_T8_C4R1_5-95_2_2,143,5
D,T8,C4R1,2,3,95,5,transtivity-D/pairs/D_T8_C4R1_5-95_2_3.tiff,D_T8_C4R1_5-95_2_3,124,5
D,T8,C4R1,3,1,95,5,transtivity-D/pairs/D_T8_C4R1_5-95_3_1.tiff,D_T8_C4R1_5-95_3_1,31,4
D,T8,C4R1,3,2,95,5,transtivity-D/pairs/D_T8_C4R1_5-95_3_2.tiff,D_T8_C4R1_5-95_3_2,46,5
D,T8,C4R1,3,3,95,5,transtivity-D/pairs/D_T8_C4R1_5-95_3_3.tiff,D_T8_C4R1_5-95_3_3,60,4
D,T8,C4R1,1,1,50,50,transtivity-D/pairs/D_T8_C4R1_50-50_1_1_-3.tiff,D_T8_C4R1_50-50_1_1_-3,476,3
D,T8,C4R1,1,1,50,50,transtivity-D/pairs/D_T8_C4R1_50-50_1_1_-4.tiff,D_T8_C4R1_50-50_1_1_-4,64,4
D,T8,C4R1,1,2,50,50,transtivity-D/pairs/D_T8_C4R1_50-50_1_2.tiff,D_T8_C4R1_50-50_1_2,133,5
D,T8,C4R1,1,3,50,50,transtivity-D/pairs/D_T8_C4R1_50-50_1_3_-3.tiff,D_T8_C4R1_50-50_1_3_-3,471,3
D,T8,C4R1,1,3,50,50,transtivity-D/pairs/D_T8_C4R1_50-50_1_3_-4.tiff,D_T8_C4R1_50-50_1_3_-4,67,4
D,T8,C4R1,2,2,50,50,transtivity-D/pairs/D_T8_C4R1_50-50_2_2.tiff,D_T8_C4R1_50-50_2_2,87,5
D,T8,C4R1,2,3,50,50,transtivity-D/pairs/D_T8_C4R1_50-50_2_3.tiff,D_T8_C4R1_50-50_2_3,135,5
D,T8,C4R1,3,3,50,50,transtivity-D/pairs/D_T8_C4R1_50-50_3_3_-3.tiff,D_T8_C4R1_50-50_3_3_-3,342,3
D,T8,C4R1,3,3,50,50,transtivity-D/pairs/D_T8_C4R1_50-50_3_3_-4.tiff,D_T8_C4R1_50-50_3_3_-4,40,4
B2,T8,C7R1,1,1,monoculture,monoculture,transtivity-B2/pairs/B2_T8_C7R1_1.tiff,B2_T8_C7R1_1,69,5
B2,T8,C7R1,2,2,monoculture,monoculture,transtivity-B2/pairs/B2_T8_C7R1_2.tiff,B2_T8_C7R1_2,26,5
B2,T8,C7R1,3,3,monoculture,monoculture,transtivity-B2/pairs/B2_T8_C7R1_3.tiff,B2_T8_C7R1_3,62,5
B2,T8,C7R1,4,4,monoculture,monoculture,transtivity-B2/pairs/B2_T8_C7R1_4.tiff,B2_T8_C7R1_4,64,5
B2,T8,C7R1,1,1,95,5,transtivity-B2/pairs/B2_T8_C7R1_5-95_1_1.tiff,B2_T8_C7R1_5-95_1_1,124,5
B2,T8,C7R1,1,2,95,5,transtivity-B2/pairs/B2_T8_C7R1_5-95_1_2.tiff,B2_T8_C7R1_5-95_1_2,97,5
B2,T8,C7R1,1,3,95,5,transtivity-B2/pairs/B2_T8_C7R1_5-95_1_3.tiff,B2_T8_C7R1_5-95_1_3,82,5
B2,T8,C7R1,1,4,95,5,transtivity-B2/pairs/B2_T8_C7R1_5-95_1_4.tiff,B2_T8_C7R1_5-95_1_4,89,5
B2,T8,C7R1,2,1,95,5,transtivity-B2/pairs/B2_T8_C7R1_5-95_2_1.tiff,B2_T8_C7R1_5-95_2_1,104,5
B2,T8,C7R1,2,2,95,5,transtivity-B2/pairs/B2_T8_C7R1_5-95_2_2.tiff,B2_T8_C7R1_5-95_2_2,44,5
B2,T8,C7R1,2,3,95,5,transtivity-B2/pairs/B2_T8_C7R1_5-95_2_3.tiff,B2_T8_C7R1_5-95_2_3,65,5
B2,T8,C7R1,2,4,95,5,transtivity-B2/pairs/B2_T8_C7R1_5-95_2_4.tiff,B2_T8_C7R1_5-95_2_4,138,5
B2,T8,C7R1,3,1,95,5,transtivity-B2/pairs/B2_T8_C7R1_5-95_3_1.tiff,B2_T8_C7R1_5-95_3_1,143,5
B2,T8,C7R1,3,2,95,5,transtivity-B2/pairs/B2_T8_C7R1_5-95_3_2.tiff,B2_T8_C7R1_5-95_3_2,92,5
B2,T8,C7R1,3,3,95,5,transtivity-B2/pairs/B2_T8_C7R1_5-95_3_3.tiff,B2_T8_C7R1_5-95_3_3,90,5
B2,T8,C7R1,3,4,95,5,transtivity-B2/pairs/B2_T8_C7R1_5-95_3_4.tiff,B2_T8_C7R1_5-95_3_4,68,5
B2,T8,C7R1,4,1,95,5,transtivity-B2/pairs/B2_T8_C7R1_5-95_4_1.tiff,B2_T8_C7R1_5-95_4_1,116,5
B2,T8,C7R1,4,2,95,5,transtivity-B2/pairs/B2_T8_C7R1_5-95_4_2.tiff,B2_T8_C7R1_5-95_4_2,137,5
B2,T8,C7R1,4,3,95,5,transtivity-B2/pairs/B2_T8_C7R1_5-95_4_3.tiff,B2_T8_C7R1_5-95_4_3,61,5
B2,T8,C7R1,4,4,95,5,transtivity-B2/pairs/B2_T8_C7R1_5-95_4_4.tiff,B2_T8_C7R1_5-95_4_4,66,5
B2,T8,C7R1,1,1,50,50,transtivity-B2/pairs/B2_T8_C7R1_50-50_1_1.tiff,B2_T8_C7R1_50-50_1_1,90,5
B2,T8,C7R1,1,2,50,50,transtivity-B2/pairs/B2_T8_C7R1_50-50_1_2.tiff,B2_T8_C7R1_50-50_1_2,67,5
B2,T8,C7R1,1,3,50,50,transtivity-B2/pairs/B2_T8_C7R1_50-50_1_3.tiff,B2_T8_C7R1_50-50_1_3,76,5
B2,T8,C7R1,1,4,50,50,transtivity-B2/pairs/B2_T8_C7R1_50-50_1_4.tiff,B2_T8_C7R1_50-50_1_4,58,5
B2,T8,C7R1,2,2,50,50,transtivity-B2/pairs/B2_T8_C7R1_50-50_2_2.tiff,B2_T8_C7R1_50-50_2_2,31,5
B2,T8,C7R1,2,3,50,50,transtivity-B2/pairs/B2_T8_C7R1_50-50_2_3.tiff,B2_T8_C7R1_50-50_2_3,58,5
B2,T8,C7R1,2,4,50,50,transtivity-B2/pairs/B2_T8_C7R1_50-50_2_4.tiff,B2_T8_C7R1_50-50_2_4,54,5
B2,T8,C7R1,3,3,50,50,transtivity-B2/pairs/B2_T8_C7R1_50-50_3_3.tiff,B2_T8_C7R1_50-50_3_3,47,5
B2,T8,C7R1,3,4,50,50,transtivity-B2/pairs/B2_T8_C7R1_50-50_3_4.tiff,B2_T8_C7R1_50-50_3_4,49,5
B2,T8,C7R1,4,4,50,50,transtivity-B2/pairs/B2_T8_C7R1_50-50_4_4.tiff,B2_T8_C7R1_50-50_4_4,64,5
B2,T8,C8R4,1,1,monoculture,monoculture,transtivity-B2/pairs/B2_T8_C8R4_1.tiff,B2_T8_C8R4_1,120,5
B2,T8,C8R4,2,2,monoculture,monoculture,transtivity-B2/pairs/B2_T8_C8R4_2.tiff,B2_T8_C8R4_2,58,5
B2,T8,C8R4,3,3,monoculture,monoculture,transtivity-B2/pairs/B2_T8_C8R4_3.tiff,B2_T8_C8R4_3,157,5
B2,T8,C8R4,1,1,95,5,transtivity-B2/pairs/B2_T8_C8R4_5-95_1_1.tiff,B2_T8_C8R4_5-95_1_1,168,5
B2,T8,C8R4,1,2,95,5,transtivity-B2/pairs/B2_T8_C8R4_5-95_1_2.tiff,B2_T8_C8R4_5-95_1_2,118,5
B2,T8,C8R4,1,3,95,5,transtivity-B2/pairs/B2_T8_C8R4_5-95_1_3.tiff,B2_T8_C8R4_5-95_1_3,137,5
B2,T8,C8R4,2,1,95,5,transtivity-B2/pairs/B2_T8_C8R4_5-95_2_1.tiff,B2_T8_C8R4_5-95_2_1,68,5
B2,T8,C8R4,2,2,95,5,transtivity-B2/pairs/B2_T8_C8R4_5-95_2_2.tiff,B2_T8_C8R4_5-95_2_2,117,5
B2,T8,C8R4,2,3,95,5,transtivity-B2/pairs/B2_T8_C8R4_5-95_2_3.tiff,B2_T8_C8R4_5-95_2_3,80,5
B2,T8,C8R4,3,1,95,5,transtivity-B2/pairs/B2_T8_C8R4_5-95_3_1.tiff,B2_T8_C8R4_5-95_3_1,136,5
B2,T8,C8R4,3,2,95,5,transtivity-B2/pairs/B2_T8_C8R4_5-95_3_2.tiff,B2_T8_C8R4_5-95_3_2,98,5
B2,T8,C8R4,3,3,95,5,transtivity-B2/pairs/B2_T8_C8R4_5-95_3_3.tiff,B2_T8_C8R4_5-95_3_3,98,5
B2,T8,C8R4,1,1,50,50,transtivity-B2/pairs/B2_T8_C8R4_50-50_1_1.tiff,B2_T8_C8R4_50-50_1_1,224,5
B2,T8,C8R4,1,2,50,50,transtivity-B2/pairs/B2_T8_C8R4_50-50_1_2.tiff,B2_T8_C8R4_50-50_1_2,142,5
B2,T8,C8R4,1,3,50,50,transtivity-B2/pairs/B2_T8_C8R4_50-50_1_3.tiff,B2_T8_C8R4_50-50_1_3,117,5
B2,T8,C8R4,2,2,50,50,transtivity-B2/pairs/B2_T8_C8R4_50-50_2_2.tiff,B2_T8_C8R4_50-50_2_2,64,5
B2,T8,C8R4,2,3,50,50,transtivity-B2/pairs/B2_T8_C8R4_50-50_2_3.tiff,B2_T8_C8R4_50-50_2_3,44,5
B2,T8,C8R4,3,3,50,50,transtivity-B2/pairs/B2_T8_C8R4_50-50_3_3.tiff,B2_T8_C8R4_50-50_3_3,133,5
B2,T8,C10R2,1,1,monoculture,monoculture,transtivity-B2/pairs/B2_T8_C10R2_1.tiff,B2_T8_C10R2_1,34,5
B2,T8,C10R2,2,2,monoculture,monoculture,transtivity-B2/pairs/B2_T8_C10R2_2.tiff,B2_T8_C10R2_2,78,5
B2,T8,C10R2,3,3,monoculture,monoculture,transtivity-B2/pairs/B2_T8_C10R2_3.tiff,B2_T8_C10R2_3,-1,5
B2,T8,C10R2,1,1,95,5,transtivity-B2/pairs/B2_T8_C10R2_5-95_1_1.tiff,B2_T8_C10R2_5-95_1_1,25,5
B2,T8,C10R2,1,2,95,5,transtivity-B2/pairs/B2_T8_C10R2_5-95_1_2.tiff,B2_T8_C10R2_5-95_1_2,107,5
B2,T8,C10R2,1,3,95,5,transtivity-B2/pairs/B2_T8_C10R2_5-95_1_3.tiff,B2_T8_C10R2_5-95_1_3,10,5
B2,T8,C10R2,2,1,95,5,transtivity-B2/pairs/B2_T8_C10R2_5-95_2_1.tiff,B2_T8_C10R2_5-95_2_1,67,5
B2,T8,C10R2,2,2,95,5,transtivity-B2/pairs/B2_T8_C10R2_5-95_2_2.tiff,B2_T8_C10R2_5-95_2_2,108,5
B2,T8,C10R2,2,3,95,5,transtivity-B2/pairs/B2_T8_C10R2_5-95_2_3.tiff,B2_T8_C10R2_5-95_2_3,60,5
B2,T8,C10R2,3,1,95,5,transtivity-B2/pairs/B2_T8_C10R2_5-95_3_1.tiff,B2_T8_C10R2_5-95_3_1,20,5
B2,T8,C10R2,3,2,95,5,transtivity-B2/pairs/B2_T8_C10R2_5-95_3_2.tiff,B2_T8_C10R2_5-95_3_2,53,5
B2,T8,C10R2,3,3,95,5,transtivity-B2/pairs/B2_T8_C10R2_5-95_3_3.tiff,B2_T8_C10R2_5-95_3_3,1,5
B2,T8,C10R2,1,1,50,50,transtivity-B2/pairs/B2_T8_C10R2_50-50_1_1.tiff,B2_T8_C10R2_50-50_1_1,44,5
B2,T8,C10R2,1,2,50,50,transtivity-B2/pairs/B2_T8_C10R2_50-50_1_2.tiff,B2_T8_C10R2_50-50_1_2,80,5
B2,T8,C10R2,1,3,50,50,transtivity-B2/pairs/B2_T8_C10R2_50-50_1_3.tiff,B2_T8_C10R2_50-50_1_3,24,5
B2,T8,C10R2,2,2,50,50,transtivity-B2/pairs/B2_T8_C10R2_50-50_2_2.tiff,B2_T8_C10R2_50-50_2_2,60,5
B2,T8,C10R2,2,3,50,50,transtivity-B2/pairs/B2_T8_C10R2_50-50_2_3.tiff,B2_T8_C10R2_50-50_2_3,108,5
B2,T8,C10R2,3,3,50,50,transtivity-B2/pairs/B2_T8_C10R2_50-50_3_3.tiff,B2_T8_C10R2_50-50_3_3,-1,5
B2,T8,C11R1,1,1,monoculture,monoculture,transtivity-B2/pairs/B2_T8_C11R1_1.tiff,B2_T8_C11R1_1,98,5
B2,T8,C11R1,2,2,monoculture,monoculture,transtivity-B2/pairs/B2_T8_C11R1_2.tiff,B2_T8_C11R1_2,-1,5
B2,T8,C11R1,3,3,monoculture,monoculture,transtivity-B2/pairs/B2_T8_C11R1_3.tiff,B2_T8_C11R1_3,0,5
B2,T8,C11R1,4,4,monoculture,monoculture,transtivity-B2/pairs/B2_T8_C11R1_4.tiff,B2_T8_C11R1_4,50,5
B2,T8,C11R1,5,5,monoculture,monoculture,transtivity-B2/pairs/B2_T8_C11R1_5.tiff,B2_T8_C11R1_5,62,5
B2,T8,C11R1,6,6,monoculture,monoculture,transtivity-B2/pairs/B2_T8_C11R1_6.tiff,B2_T8_C11R1_6,81,5
B2,T8,C11R1,7,7,monoculture,monoculture,transtivity-B2/pairs/B2_T8_C11R1_7.tiff,B2_T8_C11R1_7,103,5
B2,T8,C11R1,8,8,monoculture,monoculture,transtivity-B2/pairs/B2_T8_C11R1_8.tiff,B2_T8_C11R1_8,0,5
B2,T8,C11R1,9,9,monoculture,monoculture,transtivity-B2/pairs/B2_T8_C11R1_9.tiff,B2_T8_C11R1_9,1,5
C,T8,C11R1,1,1,monoculture,monoculture,transtivity-C/pairs/C_T8_C11R1_1.tiff,C_T8_C11R1_1,39,4
C,T8,C11R1,2,2,monoculture,monoculture,transtivity-C/pairs/C_T8_C11R1_2.tiff,C_T8_C11R1_2,5,2
C,T8,C11R1,3,3,monoculture,monoculture,transtivity-C/pairs/C_T8_C11R1_3.tiff,C_T8_C11R1_3,274,2
C,T8,C11R1,4,4,monoculture,monoculture,transtivity-C/pairs/C_T8_C11R1_4.tiff,C_T8_C11R1_4,56,5
C,T8,C11R1,5,5,monoculture,monoculture,transtivity-C/pairs/C_T8_C11R1_5.tiff,C_T8_C11R1_5,185,5
C,T8,C11R1,6,6,monoculture,monoculture,transtivity-C/pairs/C_T8_C11R1_6.tiff,C_T8_C11R1_6,180,5
C,T8,C11R1,7,7,monoculture,monoculture,transtivity-C/pairs/C_T8_C11R1_7.tiff,C_T8_C11R1_7,195,5
C,T8,C11R1,8,8,monoculture,monoculture,transtivity-C/pairs/C_T8_C11R1_8.tiff,C_T8_C11R1_8,2,2
C,T8,C11R1,9,9,monoculture,monoculture,transtivity-C/pairs/C_T8_C11R1_9.tiff,C_T8_C11R1_9,140,2
B2,T8,C11R1,1,1,95,5,transtivity-B2/pairs/B2_T8_C11R1_5-95_1_1.tiff,B2_T8_C11R1_5-95_1_1,141,5
B2,T8,C11R1,1,2,95,5,transtivity-B2/pairs/B2_T8_C11R1_5-95_1_2.tiff,B2_T8_C11R1_5-95_1_2,101,5
B2,T8,C11R1,1,3,95,5,transtivity-B2/pairs/B2_T8_C11R1_5-95_1_3.tiff,B2_T8_C11R1_5-95_1_3,90,5
B2,T8,C11R1,1,4,95,5,transtivity-B2/pairs/B2_T8_C11R1_5-95_1_4.tiff,B2_T8_C11R1_5-95_1_4,90,5
B2,T8,C11R1,1,5,95,5,transtivity-B2/pairs/B2_T8_C11R1_5-95_1_5.tiff,B2_T8_C11R1_5-95_1_5,146,5
B2,T8,C11R1,1,6,95,5,transtivity-B2/pairs/B2_T8_C11R1_5-95_1_6.tiff,B2_T8_C11R1_5-95_1_6,57,5
B2,T8,C11R1,1,7,95,5,transtivity-B2/pairs/B2_T8_C11R1_5-95_1_7.tiff,B2_T8_C11R1_5-95_1_7,90,5
B2,T8,C11R1,1,8,95,5,transtivity-B2/pairs/B2_T8_C11R1_5-95_1_8.tiff,B2_T8_C11R1_5-95_1_8,68,5
B2,T8,C11R1,1,9,95,5,transtivity-B2/pairs/B2_T8_C11R1_5-95_1_9.tiff,B2_T8_C11R1_5-95_1_9,136,5
B2,T8,C11R1,2,1,95,5,transtivity-B2/pairs/B2_T8_C11R1_5-95_2_1.tiff,B2_T8_C11R1_5-95_2_1,109,5
B2,T8,C11R1,2,2,95,5,transtivity-B2/pairs/B2_T8_C11R1_5-95_2_2.tiff,B2_T8_C11R1_5-95_2_2,-1,5
B2,T8,C11R1,2,3,95,5,transtivity-B2/pairs/B2_T8_C11R1_5-95_2_3.tiff,B2_T8_C11R1_5-95_2_3,44,5
B2,T8,C11R1,2,4,95,5,transtivity-B2/pairs/B2_T8_C11R1_5-95_2_4.tiff,B2_T8_C11R1_5-95_2_4,23,5
B2,T8,C11R1,2,5,95,5,transtivity-B2/pairs/B2_T8_C11R1_5-95_2_5.tiff,B2_T8_C11R1_5-95_2_5,112,5
B2,T8,C11R1,2,6,95,5,transtivity-B2/pairs/B2_T8_C11R1_5-95_2_6.tiff,B2_T8_C11R1_5-95_2_6,75,5
B2,T8,C11R1,2,7,95,5,transtivity-B2/pairs/B2_T8_C11R1_5-95_2_7.tiff,B2_T8_C11R1_5-95_2_7,130,5
B2,T8,C11R1,2,8,95,5,transtivity-B2/pairs/B2_T8_C11R1_5-95_2_8.tiff,B2_T8_C11R1_5-95_2_8,-1,5
B2,T8,C11R1,2,9,95,5,transtivity-B2/pairs/B2_T8_C11R1_5-95_2_9.tiff,B2_T8_C11R1_5-95_2_9,-1,5
B2,T8,C11R1,3,1,95,5,transtivity-B2/pairs/B2_T8_C11R1_5-95_3_1.tiff,B2_T8_C11R1_5-95_3_1,115,5
B2,T8,C11R1,3,2,95,5,transtivity-B2/pairs/B2_T8_C11R1_5-95_3_2.tiff,B2_T8_C11R1_5-95_3_2,55,5
B2,T8,C11R1,3,3,95,5,transtivity-B2/pairs/B2_T8_C11R1_5-95_3_3.tiff,B2_T8_C11R1_5-95_3_3,-1,5
B2,T8,C11R1,3,4,95,5,transtivity-B2/pairs/B2_T8_C11R1_5-95_3_4.tiff,B2_T8_C11R1_5-95_3_4,6,5
B2,T8,C11R1,3,5,95,5,transtivity-B2/pairs/B2_T8_C11R1_5-95_3_5.tiff,B2_T8_C11R1_5-95_3_5,140,5
B2,T8,C11R1,3,6,95,5,transtivity-B2/pairs/B2_T8_C11R1_5-95_3_6.tiff,B2_T8_C11R1_5-95_3_6,83,5
B2,T8,C11R1,3,7,95,5,transtivity-B2/pairs/B2_T8_C11R1_5-95_3_7.tiff,B2_T8_C11R1_5-95_3_7,108,5
B2,T8,C11R1,3,8,95,5,transtivity-B2/pairs/B2_T8_C11R1_5-95_3_8.tiff,B2_T8_C11R1_5-95_3_8,30,5
B2,T8,C11R1,3,9,95,5,transtivity-B2/pairs/B2_T8_C11R1_5-95_3_9.tiff,B2_T8_C11R1_5-95_3_9,55,5
B2,T8,C11R1,4,1,95,5,transtivity-B2/pairs/B2_T8_C11R1_5-95_4_1.tiff,B2_T8_C11R1_5-95_4_1,144,5
B2,T8,C11R1,4,2,95,5,transtivity-B2/pairs/B2_T8_C11R1_5-95_4_2.tiff,B2_T8_C11R1_5-95_4_2,45,5
B2,T8,C11R1,4,3,95,5,transtivity-B2/pairs/B2_T8_C11R1_5-95_4_3.tiff,B2_T8_C11R1_5-95_4_3,24,5
B2,T8,C11R1,4,4,95,5,transtivity-B2/pairs/B2_T8_C11R1_5-95_4_4.tiff,B2_T8_C11R1_5-95_4_4,50,5
B2,T8,C11R1,4,5,95,5,transtivity-B2/pairs/B2_T8_C11R1_5-95_4_5.tiff,B2_T8_C11R1_5-95_4_5,120,5
B2,T8,C11R1,4,6,95,5,transtivity-B2/pairs/B2_T8_C11R1_5-95_4_6.tiff,B2_T8_C11R1_5-95_4_6,105,5
B2,T8,C11R1,4,7,95,5,transtivity-B2/pairs/B2_T8_C11R1_5-95_4_7.tiff,B2_T8_C11R1_5-95_4_7,114,5
B2,T8,C11R1,4,8,95,5,transtivity-B2/pairs/B2_T8_C11R1_5-95_4_8.tiff,B2_T8_C11R1_5-95_4_8,21,5
B2,T8,C11R1,4,9,95,5,transtivity-B2/pairs/B2_T8_C11R1_5-95_4_9.tiff,B2_T8_C11R1_5-95_4_9,49,5
B2,T8,C11R1,5,1,95,5,transtivity-B2/pairs/B2_T8_C11R1_5-95_5_1.tiff,B2_T8_C11R1_5-95_5_1,103,5
B2,T8,C11R1,5,2,95,5,transtivity-B2/pairs/B2_T8_C11R1_5-95_5_2.tiff,B2_T8_C11R1_5-95_5_2,99,5
B2,T8,C11R1,5,3,95,5,transtivity-B2/pairs/B2_T8_C11R1_5-95_5_3.tiff,B2_T8_C11R1_5-95_5_3,91,5
B2,T8,C11R1,5,4,95,5,transtivity-B2/pairs/B2_T8_C11R1_5-95_5_4.tiff,B2_T8_C11R1_5-95_5_4,103,5
B2,T8,C11R1,5,5,95,5,transtivity-B2/pairs/B2_T8_C11R1_5-95_5_5.tiff,B2_T8_C11R1_5-95_5_5,75,5
B2,T8,C11R1,5,6,95,5,transtivity-B2/pairs/B2_T8_C11R1_5-95_5_6.tiff,B2_T8_C11R1_5-95_5_6,79,5
B2,T8,C11R1,5,7,95,5,transtivity-B2/pairs/B2_T8_C11R1_5-95_5_7.tiff,B2_T8_C11R1_5-95_5_7,92,5
B2,T8,C11R1,5,8,95,5,transtivity-B2/pairs/B2_T8_C11R1_5-95_5_8.tiff,B2_T8_C11R1_5-95_5_8,57,5
B2,T8,C11R1,5,9,95,5,transtivity-B2/pairs/B2_T8_C11R1_5-95_5_9.tiff,B2_T8_C11R1_5-95_5_9,92,5
B2,T8,C11R1,6,1,95,5,transtivity-B2/pairs/B2_T8_C11R1_5-95_6_1.tiff,B2_T8_C11R1_5-95_6_1,126,5
B2,T8,C11R1,6,2,95,5,transtivity-B2/pairs/B2_T8_C11R1_5-95_6_2.tiff,B2_T8_C11R1_5-95_6_2,86,5
B2,T8,C11R1,6,3,95,5,transtivity-B2/pairs/B2_T8_C11R1_5-95_6_3.tiff,B2_T8_C11R1_5-95_6_3,87,5
B2,T8,C11R1,6,4,95,5,transtivity-B2/pairs/B2_T8_C11R1_5-95_6_4.tiff,B2_T8_C11R1_5-95_6_4,89,5
B2,T8,C11R1,6,5,95,5,transtivity-B2/pairs/B2_T8_C11R1_5-95_6_5.tiff,B2_T8_C11R1_5-95_6_5,102,5
B2,T8,C11R1,6,6,95,5,transtivity-B2/pairs/B2_T8_C11R1_5-95_6_6.tiff,B2_T8_C11R1_5-95_6_6,87,5
B2,T8,C11R1,6,7,95,5,transtivity-B2/pairs/B2_T8_C11R1_5-95_6_7.tiff,B2_T8_C11R1_5-95_6_7,92,5
B2,T8,C11R1,6,8,95,5,transtivity-B2/pairs/B2_T8_C11R1_5-95_6_8.tiff,B2_T8_C11R1_5-95_6_8,83,5
B2,T8,C11R1,6,9,95,5,transtivity-B2/pairs/B2_T8_C11R1_5-95_6_9.tiff,B2_T8_C11R1_5-95_6_9,102,5
B2,T8,C11R1,7,1,95,5,transtivity-B2/pairs/B2_T8_C11R1_5-95_7_1.tiff,B2_T8_C11R1_5-95_7_1,130,5
B2,T8,C11R1,7,2,95,5,transtivity-B2/pairs/B2_T8_C11R1_5-95_7_2.tiff,B2_T8_C11R1_5-95_7_2,55,5
B2,T8,C11R1,7,3,95,5,transtivity-B2/pairs/B2_T8_C11R1_5-95_7_3.tiff,B2_T8_C11R1_5-95_7_3,103,5
B2,T8,C11R1,7,4,95,5,transtivity-B2/pairs/B2_T8_C11R1_5-95_7_4.tiff,B2_T8_C11R1_5-95_7_4,75,5
B2,T8,C11R1,7,5,95,5,transtivity-B2/pairs/B2_T8_C11R1_5-95_7_5.tiff,B2_T8_C11R1_5-95_7_5,96,5
B2,T8,C11R1,7,6,95,5,transtivity-B2/pairs/B2_T8_C11R1_5-95_7_6.tiff,B2_T8_C11R1_5-95_7_6,77,5
B2,T8,C11R1,7,7,95,5,transtivity-B2/pairs/B2_T8_C11R1_5-95_7_7.tiff,B2_T8_C11R1_5-95_7_7,86,5
B2,T8,C11R1,7,8,95,5,transtivity-B2/pairs/B2_T8_C11R1_5-95_7_8.tiff,B2_T8_C11R1_5-95_7_8,62,5
B2,T8,C11R1,7,9,95,5,transtivity-B2/pairs/B2_T8_C11R1_5-95_7_9.tiff,B2_T8_C11R1_5-95_7_9,88,5
B2,T8,C11R1,8,1,95,5,transtivity-B2/pairs/B2_T8_C11R1_5-95_8_1.tiff,B2_T8_C11R1_5-95_8_1,146,5
B2,T8,C11R1,8,2,95,5,transtivity-B2/pairs/B2_T8_C11R1_5-95_8_2.tiff,B2_T8_C11R1_5-95_8_2,1,5
B2,T8,C11R1,8,3,95,5,transtivity-B2/pairs/B2_T8_C11R1_5-95_8_3.tiff,B2_T8_C11R1_5-95_8_3,48,5
B2,T8,C11R1,8,4,95,5,transtivity-B2/pairs/B2_T8_C11R1_5-95_8_4.tiff,B2_T8_C11R1_5-95_8_4,58,5
B2,T8,C11R1,8,5,95,5,transtivity-B2/pairs/B2_T8_C11R1_5-95_8_5.tiff,B2_T8_C11R1_5-95_8_5,153,5
B2,T8,C11R1,8,6,95,5,transtivity-B2/pairs/B2_T8_C11R1_5-95_8_6.tiff,B2_T8_C11R1_5-95_8_6,125,5
B2,T8,C11R1,8,7,95,5,transtivity-B2/pairs/B2_T8_C11R1_5-95_8_7.tiff,B2_T8_C11R1_5-95_8_7,95,5
B2,T8,C11R1,8,8,95,5,transtivity-B2/pairs/B2_T8_C11R1_5-95_8_8.tiff,B2_T8_C11R1_5-95_8_8,0,5
B2,T8,C11R1,8,9,95,5,transtivity-B2/pairs/B2_T8_C11R1_5-95_8_9.tiff,B2_T8_C11R1_5-95_8_9,0,5
B2,T8,C11R1,9,1,95,5,transtivity-B2/pairs/B2_T8_C11R1_5-95_9_1.tiff,B2_T8_C11R1_5-95_9_1,122,5
B2,T8,C11R1,9,2,95,5,transtivity-B2/pairs/B2_T8_C11R1_5-95_9_2.tiff,B2_T8_C11R1_5-95_9_2,1,5
B2,T8,C11R1,9,3,95,5,transtivity-B2/pairs/B2_T8_C11R1_5-95_9_3.tiff,B2_T8_C11R1_5-95_9_3,55,5
B2,T8,C11R1,9,4,95,5,transtivity-B2/pairs/B2_T8_C11R1_5-95_9_4.tiff,B2_T8_C11R1_5-95_9_4,32,5
B2,T8,C11R1,9,5,95,5,transtivity-B2/pairs/B2_T8_C11R1_5-95_9_5.tiff,B2_T8_C11R1_5-95_9_5,127,5
B2,T8,C11R1,9,6,95,5,transtivity-B2/pairs/B2_T8_C11R1_5-95_9_6.tiff,B2_T8_C11R1_5-95_9_6,93,5
B2,T8,C11R1,9,7,95,5,transtivity-B2/pairs/B2_T8_C11R1_5-95_9_7.tiff,B2_T8_C11R1_5-95_9_7,93,5
B2,T8,C11R1,9,8,95,5,transtivity-B2/pairs/B2_T8_C11R1_5-95_9_8.tiff,B2_T8_C11R1_5-95_9_8,1,5
B2,T8,C11R1,9,9,95,5,transtivity-B2/pairs/B2_T8_C11R1_5-95_9_9.tiff,B2_T8_C11R1_5-95_9_9,-1,5
C,T8,C11R1,1,1a,95,5,transtivity-C/pairs/C_T8_C11R1_5-95_1_1a.tiff,C_T8_C11R1_5-95_1_1a,64,4
C,T8,C11R1,1,1b,95,5,transtivity-C/pairs/C_T8_C11R1_5-95_1_1b.tiff,C_T8_C11R1_5-95_1_1b,31,4
C,T8,C11R1,1,2,95,5,transtivity-C/pairs/C_T8_C11R1_5-95_1_2.tiff,C_T8_C11R1_5-95_1_2,179,4
C,T8,C11R1,1,3,95,5,transtivity-C/pairs/C_T8_C11R1_5-95_1_3.tiff,C_T8_C11R1_5-95_1_3,37,4
C,T8,C11R1,1,4,95,5,transtivity-C/pairs/C_T8_C11R1_5-95_1_4.tiff,C_T8_C11R1_5-95_1_4,38,5
C,T8,C11R1,1,5,95,5,transtivity-C/pairs/C_T8_C11R1_5-95_1_5.tiff,C_T8_C11R1_5-95_1_5,59,5
C,T8,C11R1,1,6,95,5,transtivity-C/pairs/C_T8_C11R1_5-95_1_6.tiff,C_T8_C11R1_5-95_1_6,72,5
C,T8,C11R1,1,7,95,5,transtivity-C/pairs/C_T8_C11R1_5-95_1_7.tiff,C_T8_C11R1_5-95_1_7,30,5
C,T8,C11R1,1,8,95,5,transtivity-C/pairs/C_T8_C11R1_5-95_1_8.tiff,C_T8_C11R1_5-95_1_8,72,5
C,T8,C11R1,1,9,95,5,transtivity-C/pairs/C_T8_C11R1_5-95_1_9.tiff,C_T8_C11R1_5-95_1_9,55,5
C,T8,C11R1,2,1,95,5,transtivity-C/pairs/C_T8_C11R1_5-95_2_1.tiff,C_T8_C11R1_5-95_2_1,143,4
C,T8,C11R1,3,1,95,5,transtivity-C/pairs/C_T8_C11R1_5-95_3_1.tiff,C_T8_C11R1_5-95_3_1,47,4
C,T8,C11R1,4,1,95,5,transtivity-C/pairs/C_T8_C11R1_5-95_4_1.tiff,C_T8_C11R1_5-95_4_1,31,5
C,T8,C11R1,5,1,95,5,transtivity-C/pairs/C_T8_C11R1_5-95_5_1.tiff,C_T8_C11R1_5-95_5_1,199,5
C,T8,C11R1,5,6,95,5,transtivity-C/pairs/C_T8_C11R1_5-95_5_6.tiff,C_T8_C11R1_5-95_5_6,76,5
C,T8,C11R1,5,7,95,5,transtivity-C/pairs/C_T8_C11R1_5-95_5_7.tiff,C_T8_C11R1_5-95_5_7,99,5
C,T8,C11R1,6,1,95,5,transtivity-C/pairs/C_T8_C11R1_5-95_6_1.tiff,C_T8_C11R1_5-95_6_1,197,5
C,T8,C11R1,6,5,95,5,transtivity-C/pairs/C_T8_C11R1_5-95_6_5.tiff,C_T8_C11R1_5-95_6_5,106,5
C,T8,C11R1,7,1,95,5,transtivity-C/pairs/C_T8_C11R1_5-95_7_1.tiff,C_T8_C11R1_5-95_7_1,74,5
C,T8,C11R1,7,5,95,5,transtivity-C/pairs/C_T8_C11R1_5-95_7_5.tiff,C_T8_C11R1_5-95_7_5,98,5
C,T8,C11R1,8,1,95,5,transtivity-C/pairs/C_T8_C11R1_5-95_8_1.tiff,C_T8_C11R1_5-95_8_1,133,4
C,T8,C11R1,9,1,95,5,transtivity-C/pairs/C_T8_C11R1_5-95_9_1.tiff,C_T8_C11R1_5-95_9_1,79,5
B2,T8,C11R1,1,1,50,50,transtivity-B2/pairs/B2_T8_C11R1_50-50_1_1.tiff,B2_T8_C11R1_50-50_1_1,104,5
B2,T8,C11R1,1,2,50,50,transtivity-B2/pairs/B2_T8_C11R1_50-50_1_2.tiff,B2_T8_C11R1_50-50_1_2,97,5
B2,T8,C11R1,1,3,50,50,transtivity-B2/pairs/B2_T8_C11R1_50-50_1_3.tiff,B2_T8_C11R1_50-50_1_3,144,5
B2,T8,C11R1,1,4,50,50,transtivity-B2/pairs/B2_T8_C11R1_50-50_1_4.tiff,B2_T8_C11R1_50-50_1_4,84,5
B2,T8,C11R1,1,5,50,50,transtivity-B2/pairs/B2_T8_C11R1_50-50_1_5.tiff,B2_T8_C11R1_50-50_1_5,71,5
B2,T8,C11R1,1,6,50,50,transtivity-B2/pairs/B2_T8_C11R1_50-50_1_6.tiff,B2_T8_C11R1_50-50_1_6,42,5
B2,T8,C11R1,1,7,50,50,transtivity-B2/pairs/B2_T8_C11R1_50-50_1_7.tiff,B2_T8_C11R1_50-50_1_7,33,5
B2,T8,C11R1,1,8,50,50,transtivity-B2/pairs/B2_T8_C11R1_50-50_1_8.tiff,B2_T8_C11R1_50-50_1_8,123,5
B2,T8,C11R1,1,9,50,50,transtivity-B2/pairs/B2_T8_C11R1_50-50_1_9.tiff,B2_T8_C11R1_50-50_1_9,69,5
B2,T8,C11R1,2,2,50,50,transtivity-B2/pairs/B2_T8_C11R1_50-50_2_2.tiff,B2_T8_C11R1_50-50_2_2,2,5
B2,T8,C11R1,2,3,50,50,transtivity-B2/pairs/B2_T8_C11R1_50-50_2_3.tiff,B2_T8_C11R1_50-50_2_3,54,5
B2,T8,C11R1,2,4,50,50,transtivity-B2/pairs/B2_T8_C11R1_50-50_2_4.tiff,B2_T8_C11R1_50-50_2_4,32,5
B2,T8,C11R1,2,5,50,50,transtivity-B2/pairs/B2_T8_C11R1_50-50_2_5.tiff,B2_T8_C11R1_50-50_2_5,76,5
B2,T8,C11R1,2,6,50,50,transtivity-B2/pairs/B2_T8_C11R1_50-50_2_6.tiff,B2_T8_C11R1_50-50_2_6,68,5
B2,T8,C11R1,2,7,50,50,transtivity-B2/pairs/B2_T8_C11R1_50-50_2_7.tiff,B2_T8_C11R1_50-50_2_7,52,5
B2,T8,C11R1,2,8,50,50,transtivity-B2/pairs/B2_T8_C11R1_50-50_2_8.tiff,B2_T8_C11R1_50-50_2_8,0,5
B2,T8,C11R1,2,9,50,50,transtivity-B2/pairs/B2_T8_C11R1_50-50_2_9.tiff,B2_T8_C11R1_50-50_2_9,-1,5
B2,T8,C11R1,3,3,50,50,transtivity-B2/pairs/B2_T8_C11R1_50-50_3_3.tiff,B2_T8_C11R1_50-50_3_3,1,5
B2,T8,C11R1,3,4,50,50,transtivity-B2/pairs/B2_T8_C11R1_50-50_3_4.tiff,B2_T8_C11R1_50-50_3_4,21,5
B2,T8,C11R1,3,5,50,50,transtivity-B2/pairs/B2_T8_C11R1_50-50_3_5.tiff,B2_T8_C11R1_50-50_3_5,69,5
B2,T8,C11R1,3,6,50,50,transtivity-B2/pairs/B2_T8_C11R1_50-50_3_6.tiff,B2_T8_C11R1_50-50_3_6,69,5
B2,T8,C11R1,3,7,50,50,transtivity-B2/pairs/B2_T8_C11R1_50-50_3_7.tiff,B2_T8_C11R1_50-50_3_7,61,5
B2,T8,C11R1,3,8,50,50,transtivity-B2/pairs/B2_T8_C11R1_50-50_3_8.tiff,B2_T8_C11R1_50-50_3_8,41,5
B2,T8,C11R1,3,9,50,50,transtivity-B2/pairs/B2_T8_C11R1_50-50_3_9.tiff,B2_T8_C11R1_50-50_3_9,38,5
B2,T8,C11R1,4,4,50,50,transtivity-B2/pairs/B2_T8_C11R1_50-50_4_4.tiff,B2_T8_C11R1_50-50_4_4,24,5
B2,T8,C11R1,4,5,50,50,transtivity-B2/pairs/B2_T8_C11R1_50-50_4_5.tiff,B2_T8_C11R1_50-50_4_5,68,5
B2,T8,C11R1,4,6,50,50,transtivity-B2/pairs/B2_T8_C11R1_50-50_4_6.tiff,B2_T8_C11R1_50-50_4_6,54,5
B2,T8,C11R1,4,7,50,50,transtivity-B2/pairs/B2_T8_C11R1_50-50_4_7.tiff,B2_T8_C11R1_50-50_4_7,82,5
B2,T8,C11R1,4,8,50,50,transtivity-B2/pairs/B2_T8_C11R1_50-50_4_8.tiff,B2_T8_C11R1_50-50_4_8,44,5
B2,T8,C11R1,4,9,50,50,transtivity-B2/pairs/B2_T8_C11R1_50-50_4_9.tiff,B2_T8_C11R1_50-50_4_9,30,5
B2,T8,C11R1,5,5,50,50,transtivity-B2/pairs/B2_T8_C11R1_50-50_5_5.tiff,B2_T8_C11R1_50-50_5_5,122,5
B2,T8,C11R1,5,6,50,50,transtivity-B2/pairs/B2_T8_C11R1_50-50_5_6.tiff,B2_T8_C11R1_50-50_5_6,64,5
B2,T8,C11R1,5,7,50,50,transtivity-B2/pairs/B2_T8_C11R1_50-50_5_7.tiff,B2_T8_C11R1_50-50_5_7,49,5
B2,T8,C11R1,5,8,50,50,transtivity-B2/pairs/B2_T8_C11R1_50-50_5_8.tiff,B2_T8_C11R1_50-50_5_8,123,5
B2,T8,C11R1,5,9,50,50,transtivity-B2/pairs/B2_T8_C11R1_50-50_5_9.tiff,B2_T8_C11R1_50-50_5_9,64,5
B2,T8,C11R1,6,6,50,50,transtivity-B2/pairs/B2_T8_C11R1_50-50_6_6.tiff,B2_T8_C11R1_50-50_6_6,72,5
B2,T8,C11R1,6,7,50,50,transtivity-B2/pairs/B2_T8_C11R1_50-50_6_7.tiff,B2_T8_C11R1_50-50_6_7,52,5
B2,T8,C11R1,6,8,50,50,transtivity-B2/pairs/B2_T8_C11R1_50-50_6_8.tiff,B2_T8_C11R1_50-50_6_8,92,5
B2,T8,C11R1,6,9,50,50,transtivity-B2/pairs/B2_T8_C11R1_50-50_6_9.tiff,B2_T8_C11R1_50-50_6_9,71,5
B2,T8,C11R1,7,7,50,50,transtivity-B2/pairs/B2_T8_C11R1_50-50_7_7.tiff,B2_T8_C11R1_50-50_7_7,53,5
B2,T8,C11R1,7,8,50,50,transtivity-B2/pairs/B2_T8_C11R1_50-50_7_8.tiff,B2_T8_C11R1_50-50_7_8,124,5
B2,T8,C11R1,7,9,50,50,transtivity-B2/pairs/B2_T8_C11R1_50-50_7_9.tiff,B2_T8_C11R1_50-50_7_9,73,5
B2,T8,C11R1,8,8,50,50,transtivity-B2/pairs/B2_T8_C11R1_50-50_8_8.tiff,B2_T8_C11R1_50-50_8_8,-1,5
B2,T8,C11R1,8,9,50,50,transtivity-B2/pairs/B2_T8_C11R1_50-50_8_9.tiff,B2_T8_C11R1_50-50_8_9,0,5
B2,T8,C11R1,9,9,50,50,transtivity-B2/pairs/B2_T8_C11R1_50-50_9_9.tiff,B2_T8_C11R1_50-50_9_9,0,5
C,T8,C11R1,1,1,50,50,transtivity-C/pairs/C_T8_C11R1_50-50_1_1.tiff,C_T8_C11R1_50-50_1_1,37,5
C,T8,C11R1,1,4,50,50,transtivity-C/pairs/C_T8_C11R1_50-50_1_4.tiff,C_T8_C11R1_50-50_1_4,29,5
C,T8,C11R1,1,5,50,50,transtivity-C/pairs/C_T8_C11R1_50-50_1_5.tiff,C_T8_C11R1_50-50_1_5,79,5
C,T8,C11R1,1,6,50,50,transtivity-C/pairs/C_T8_C11R1_50-50_1_6.tiff,C_T8_C11R1_50-50_1_6,51,5
C,T8,C11R1,1,7,50,50,transtivity-C/pairs/C_T8_C11R1_50-50_1_7.tiff,C_T8_C11R1_50-50_1_7,63,5
C,T8,C11R1,1,8,50,50,transtivity-C/pairs/C_T8_C11R1_50-50_1_8.tiff,C_T8_C11R1_50-50_1_8,196,4
C,T8,C11R1,1,9,50,50,transtivity-C/pairs/C_T8_C11R1_50-50_1_9.tiff,C_T8_C11R1_50-50_1_9,76,5
C,T8,C11R1,5,6,50,50,transtivity-C/pairs/C_T8_C11R1_50-50_5_6.tiff,C_T8_C11R1_50-50_5_6,77,5
C,T8,C11R1,5,7,50,50,transtivity-C/pairs/C_T8_C11R1_50-50_5_7.tiff,C_T8_C11R1_50-50_5_7,71,5
C2,T8,C11R2,1,1,monoculture,monoculture,transtivity-C2/pairs/C2_T8_C11R2_1.tiff,C2_T8_C11R2_1,57,5
C2,T8,C11R2,10,10,monoculture,monoculture,transtivity-C2/pairs/C2_T8_C11R2_10.tiff,C2_T8_C11R2_10,198,2
C2,T8,C11R2,11,11,monoculture,monoculture,transtivity-C2/pairs/C2_T8_C11R2_11.tiff,C2_T8_C11R2_11,62,5
C2,T8,C11R2,12,12,monoculture,monoculture,transtivity-C2/pairs/C2_T8_C11R2_12.tiff,C2_T8_C11R2_12,37,5
C2,T8,C11R2,13,13,monoculture,monoculture,transtivity-C2/pairs/C2_T8_C11R2_13.tiff,C2_T8_C11R2_13,2,5
C2,T8,C11R2,2,2,monoculture,monoculture,transtivity-C2/pairs/C2_T8_C11R2_2.tiff,C2_T8_C11R2_2,137,2
C2,T8,C11R2,3,3,monoculture,monoculture,transtivity-C2/pairs/C2_T8_C11R2_3.tiff,C2_T8_C11R2_3,41,5
C2,T8,C11R2,4,4,monoculture,monoculture,transtivity-C2/pairs/C2_T8_C11R2_4.tiff,C2_T8_C11R2_4,131,5
C2,T8,C11R2,5,5,monoculture,monoculture,transtivity-C2/pairs/C2_T8_C11R2_5.tiff,C2_T8_C11R2_5,68,5
C2,T8,C11R2,6,6,monoculture,monoculture,transtivity-C2/pairs/C2_T8_C11R2_6.tiff,C2_T8_C11R2_6,115,5
C2,T8,C11R2,7,7,monoculture,monoculture,transtivity-C2/pairs/C2_T8_C11R2_7.tiff,C2_T8_C11R2_7,30,5
C2,T8,C11R2,8,8,monoculture,monoculture,transtivity-C2/pairs/C2_T8_C11R2_8.tiff,C2_T8_C11R2_8,262,2
C2,T8,C11R2,9,9,monoculture,monoculture,transtivity-C2/pairs/C2_T8_C11R2_9.tiff,C2_T8_C11R2_9,4,2
C2,T8,C11R2,1,1,95,5,transtivity-C2/pairs/C2_T8_C11R2_5-95_1_1.tiff,C2_T8_C11R2_5-95_1_1,37,5
C2,T8,C11R2,1,10,95,5,transtivity-C2/pairs/C2_T8_C11R2_5-95_1_10.tiff,C2_T8_C11R2_5-95_1_10,26,5
C2,T8,C11R2,1,11,95,5,transtivity-C2/pairs/C2_T8_C11R2_5-95_1_11.tiff,C2_T8_C11R2_5-95_1_11,90,5
C2,T8,C11R2,1,12,95,5,transtivity-C2/pairs/C2_T8_C11R2_5-95_1_12.tiff,C2_T8_C11R2_5-95_1_12,50,5
C2,T8,C11R2,1,13,95,5,transtivity-C2/pairs/C2_T8_C11R2_5-95_1_13.tiff,C2_T8_C11R2_5-95_1_13,62,5
C2,T8,C11R2,1,2,95,5,transtivity-C2/pairs/C2_T8_C11R2_5-95_1_2.tiff,C2_T8_C11R2_5-95_1_2,65,5
C2,T8,C11R2,1,3,95,5,transtivity-C2/pairs/C2_T8_C11R2_5-95_1_3.tiff,C2_T8_C11R2_5-95_1_3,83,5
C2,T8,C11R2,1,4,95,5,transtivity-C2/pairs/C2_T8_C11R2_5-95_1_4.tiff,C2_T8_C11R2_5-95_1_4,68,5
C2,T8,C11R2,1,5,95,5,transtivity-C2/pairs/C2_T8_C11R2_5-95_1_5.tiff,C2_T8_C11R2_5-95_1_5,36,5
C2,T8,C11R2,1,6,95,5,transtivity-C2/pairs/C2_T8_C11R2_5-95_1_6.tiff,C2_T8_C11R2_5-95_1_6,65,5
C2,T8,C11R2,1,7,95,5,transtivity-C2/pairs/C2_T8_C11R2_5-95_1_7.tiff,C2_T8_C11R2_5-95_1_7,67,5
C2,T8,C11R2,1,8,95,5,transtivity-C2/pairs/C2_T8_C11R2_5-95_1_8.tiff,C2_T8_C11R2_5-95_1_8,69,5
C2,T8,C11R2,1,9,95,5,transtivity-C2/pairs/C2_T8_C11R2_5-95_1_9.tiff,C2_T8_C11R2_5-95_1_9,110,5
C2,T8,C11R2,10,1,95,5,transtivity-C2/pairs/C2_T8_C11R2_5-95_10_1.tiff,C2_T8_C11R2_5-95_10_1,36,5
C2,T8,C11R2,10,10,95,5,transtivity-C2/pairs/C2_T8_C11R2_5-95_10_10.tiff,C2_T8_C11R2_5-95_10_10,2,5
C2,T8,C11R2,10,11,95,5,transtivity-C2/pairs/C2_T8_C11R2_5-95_10_11.tiff,C2_T8_C11R2_5-95_10_11,65,5
C2,T8,C11R2,10,12,95,5,transtivity-C2/pairs/C2_T8_C11R2_5-95_10_12.tiff,C2_T8_C11R2_5-95_10_12,19,5
C2,T8,C11R2,10,13,95,5,transtivity-C2/pairs/C2_T8_C11R2_5-95_10_13.tiff,C2_T8_C11R2_5-95_10_13,99,2
C2,T8,C11R2,10,2,95,5,transtivity-C2/pairs/C2_T8_C11R2_5-95_10_2.tiff,C2_T8_C11R2_5-95_10_2,321,2
C2,T8,C11R2,10,3,95,5,transtivity-C2/pairs/C2_T8_C11R2_5-95_10_3.tiff,C2_T8_C11R2_5-95_10_3,47,5
C2,T8,C11R2,10,4,95,5,transtivity-C2/pairs/C2_T8_C11R2_5-95_10_4.tiff,C2_T8_C11R2_5-95_10_4,100,5
C2,T8,C11R2,10,5,95,5,transtivity-C2/pairs/C2_T8_C11R2_5-95_10_5.tiff,C2_T8_C11R2_5-95_10_5,70,5
C2,T8,C11R2,10,6,95,5,transtivity-C2/pairs/C2_T8_C11R2_5-95_10_6.tiff,C2_T8_C11R2_5-95_10_6,200,5
C2,T8,C11R2,10,7,95,5,transtivity-C2/pairs/C2_T8_C11R2_5-95_10_7.tiff,C2_T8_C11R2_5-95_10_7,33,5
C2,T8,C11R2,10,8,95,5,transtivity-C2/pairs/C2_T8_C11R2_5-95_10_8.tiff,C2_T8_C11R2_5-95_10_8,352,2
C2,T8,C11R2,10,9,95,5,transtivity-C2/pairs/C2_T8_C11R2_5-95_10_9.tiff,C2_T8_C11R2_5-95_10_9,411,2
C2,T8,C11R2,11,1,95,5,transtivity-C2/pairs/C2_T8_C11R2_5-95_11_1.tiff,C2_T8_C11R2_5-95_11_1,46,5
C2,T8,C11R2,11,10,95,5,transtivity-C2/pairs/C2_T8_C11R2_5-95_11_10.tiff,C2_T8_C11R2_5-95_11_10,33,5
C2,T8,C11R2,11,11,95,5,transtivity-C2/pairs/C2_T8_C11R2_5-95_11_11.tiff,C2_T8_C11R2_5-95_11_11,44,5
C2,T8,C11R2,11,12,95,5,transtivity-C2/pairs/C2_T8_C11R2_5-95_11_12.tiff,C2_T8_C11R2_5-95_11_12,48,5
C2,T8,C11R2,11,13,95,5,transtivity-C2/pairs/C2_T8_C11R2_5-95_11_13.tiff,C2_T8_C11R2_5-95_11_13,43,5
C2,T8,C11R2,11,2,95,5,transtivity-C2/pairs/C2_T8_C11R2_5-95_11_2.tiff,C2_T8_C11R2_5-95_11_2,63,5
C2,T8,C11R2,11,3,95,5,transtivity-C2/pairs/C2_T8_C11R2_5-95_11_3.tiff,C2_T8_C11R2_5-95_11_3,41,5
C2,T8,C11R2,11,4,95,5,transtivity-C2/pairs/C2_T8_C11R2_5-95_11_4.tiff,C2_T8_C11R2_5-95_11_4,56,5
C2,T8,C11R2,11,5,95,5,transtivity-C2/pairs/C2_T8_C11R2_5-95_11_5.tiff,C2_T8_C11R2_5-95_11_5,53,5
C2,T8,C11R2,11,6,95,5,transtivity-C2/pairs/C2_T8_C11R2_5-95_11_6.tiff,C2_T8_C11R2_5-95_11_6,27,5
C2,T8,C11R2,11,7,95,5,transtivity-C2/pairs/C2_T8_C11R2_5-95_11_7.tiff,C2_T8_C11R2_5-95_11_7,37,5
C2,T8,C11R2,11,8,95,5,transtivity-C2/pairs/C2_T8_C11R2_5-95_11_8.tiff,C2_T8_C11R2_5-95_11_8,25,5
C2,T8,C11R2,11,9,95,5,transtivity-C2/pairs/C2_T8_C11R2_5-95_11_9.tiff,C2_T8_C11R2_5-95_11_9,24,5
C2,T8,C11R2,12,1,95,5,transtivity-C2/pairs/C2_T8_C11R2_5-95_12_1.tiff,C2_T8_C11R2_5-95_12_1,38,5
C2,T8,C11R2,12,10,95,5,transtivity-C2/pairs/C2_T8_C11R2_5-95_12_10.tiff,C2_T8_C11R2_5-95_12_10,23,5
C2,T8,C11R2,12,11,95,5,transtivity-C2/pairs/C2_T8_C11R2_5-95_12_11.tiff,C2_T8_C11R2_5-95_12_11,53,5
C2,T8,C11R2,12,12,95,5,transtivity-C2/pairs/C2_T8_C11R2_5-95_12_12.tiff,C2_T8_C11R2_5-95_12_12,33,5
C2,T8,C11R2,12,13,95,5,transtivity-C2/pairs/C2_T8_C11R2_5-95_12_13.tiff,C2_T8_C11R2_5-95_12_13,32,5
C2,T8,C11R2,12,2,95,5,transtivity-C2/pairs/C2_T8_C11R2_5-95_12_2.tiff,C2_T8_C11R2_5-95_12_2,13,5
C2,T8,C11R2,12,3,95,5,transtivity-C2/pairs/C2_T8_C11R2_5-95_12_3.tiff,C2_T8_C11R2_5-95_12_3,52,5
C2,T8,C11R2,12,4,95,5,transtivity-C2/pairs/C2_T8_C11R2_5-95_12_4.tiff,C2_T8_C11R2_5-95_12_4,143,5
C2,T8,C11R2,12,5,95,5,transtivity-C2/pairs/C2_T8_C11R2_5-95_12_5.tiff,C2_T8_C11R2_5-95_12_5,51,5
C2,T8,C11R2,12,6,95,5,transtivity-C2/pairs/C2_T8_C11R2_5-95_12_6.tiff,C2_T8_C11R2_5-95_12_6,92,5
C2,T8,C11R2,12,7,95,5,transtivity-C2/pairs/C2_T8_C11R2_5-95_12_7.tiff,C2_T8_C11R2_5-95_12_7,34,5
C2,T8,C11R2,12,8,95,5,transtivity-C2/pairs/C2_T8_C11R2_5-95_12_8.tiff,C2_T8_C11R2_5-95_12_8,11,5
C2,T8,C11R2,12,9,95,5,transtivity-C2/pairs/C2_T8_C11R2_5-95_12_9.tiff,C2_T8_C11R2_5-95_12_9,31,5
C2,T8,C11R2,13,1,95,5,transtivity-C2/pairs/C2_T8_C11R2_5-95_13_1.tiff,C2_T8_C11R2_5-95_13_1,38,5
C2,T8,C11R2,13,10,95,5,transtivity-C2/pairs/C2_T8_C11R2_5-95_13_10.tiff,C2_T8_C11R2_5-95_13_10,411,2
C2,T8,C11R2,13,11,95,5,transtivity-C2/pairs/C2_T8_C11R2_5-95_13_11.tiff,C2_T8_C11R2_5-95_13_11,35,5
C2,T8,C11R2,13,12,95,5,transtivity-C2/pairs/C2_T8_C11R2_5-95_13_12.tiff,C2_T8_C11R2_5-95_13_12,40,5
C2,T8,C11R2,13,13,95,5,transtivity-C2/pairs/C2_T8_C11R2_5-95_13_13.tiff,C2_T8_C11R2_5-95_13_13,0,5
C2,T8,C11R2,13,2,95,5,transtivity-C2/pairs/C2_T8_C11R2_5-95_13_2.tiff,C2_T8_C11R2_5-95_13_2,228,2
C2,T8,C11R2,13,3,95,5,transtivity-C2/pairs/C2_T8_C11R2_5-95_13_3.tiff,C2_T8_C11R2_5-95_13_3,19,5
C2,T8,C11R2,13,4,95,5,transtivity-C2/pairs/C2_T8_C11R2_5-95_13_4.tiff,C2_T8_C11R2_5-95_13_4,105,5
C2,T8,C11R2,13,5,95,5,transtivity-C2/pairs/C2_T8_C11R2_5-95_13_5.tiff,C2_T8_C11R2_5-95_13_5,57,5
C2,T8,C11R2,13,6,95,5,transtivity-C2/pairs/C2_T8_C11R2_5-95_13_6.tiff,C2_T8_C11R2_5-95_13_6,75,5
C2,T8,C11R2,13,7,95,5,transtivity-C2/pairs/C2_T8_C11R2_5-95_13_7.tiff,C2_T8_C11R2_5-95_13_7,18,5
C2,T8,C11R2,13,8,95,5,transtivity-C2/pairs/C2_T8_C11R2_5-95_13_8.tiff,C2_T8_C11R2_5-95_13_8,256,2
C2,T8,C11R2,13,9,95,5,transtivity-C2/pairs/C2_T8_C11R2_5-95_13_9.tiff,C2_T8_C11R2_5-95_13_9,8,2
C2,T8,C11R2,2,1,95,5,transtivity-C2/pairs/C2_T8_C11R2_5-95_2_1.tiff,C2_T8_C11R2_5-95_2_1,26,5
C2,T8,C11R2,2,10,95,5,transtivity-C2/pairs/C2_T8_C11R2_5-95_2_10.tiff,C2_T8_C11R2_5-95_2_10,1,5
C2,T8,C11R2,2,11,95,5,transtivity-C2/pairs/C2_T8_C11R2_5-95_2_11.tiff,C2_T8_C11R2_5-95_2_11,79,5
C2,T8,C11R2,2,12,95,5,transtivity-C2/pairs/C2_T8_C11R2_5-95_2_12.tiff,C2_T8_C11R2_5-95_2_12,12,5
C2,T8,C11R2,2,13,95,5,transtivity-C2/pairs/C2_T8_C11R2_5-95_2_13.tiff,C2_T8_C11R2_5-95_2_13,220,2
C2,T8,C11R2,2,2,95,5,transtivity-C2/pairs/C2_T8_C11R2_5-95_2_2.tiff,C2_T8_C11R2_5-95_2_2,130,2
C2,T8,C11R2,2,3,95,5,transtivity-C2/pairs/C2_T8_C11R2_5-95_2_3.tiff,C2_T8_C11R2_5-95_2_3,28,5
C2,T8,C11R2,2,4,95,5,transtivity-C2/pairs/C2_T8_C11R2_5-95_2_4.tiff,C2_T8_C11R2_5-95_2_4,78,5
C2,T8,C11R2,2,5,95,5,transtivity-C2/pairs/C2_T8_C11R2_5-95_2_5.tiff,C2_T8_C11R2_5-95_2_5,39,5
C2,T8,C11R2,2,6,95,5,transtivity-C2/pairs/C2_T8_C11R2_5-95_2_6.tiff,C2_T8_C11R2_5-95_2_6,88,5
C2,T8,C11R2,2,7,95,5,transtivity-C2/pairs/C2_T8_C11R2_5-95_2_7.tiff,C2_T8_C11R2_5-95_2_7,19,5
C2,T8,C11R2,2,8,95,5,transtivity-C2/pairs/C2_T8_C11R2_5-95_2_8.tiff,C2_T8_C11R2_5-95_2_8,262,2
C2,T8,C11R2,2,9,95,5,transtivity-C2/pairs/C2_T8_C11R2_5-95_2_9.tiff,C2_T8_C11R2_5-95_2_9,2,5
C2,T8,C11R2,3,1,95,5,transtivity-C2/pairs/C2_T8_C11R2_5-95_3_1.tiff,C2_T8_C11R2_5-95_3_1,28,5
C2,T8,C11R2,3,10,95,5,transtivity-C2/pairs/C2_T8_C11R2_5-95_3_10.tiff,C2_T8_C11R2_5-95_3_10,20,5
C2,T8,C11R2,3,11,95,5,transtivity-C2/pairs/C2_T8_C11R2_5-95_3_11.tiff,C2_T8_C11R2_5-95_3_11,51,5
C2,T8,C11R2,3,12,95,5,transtivity-C2/pairs/C2_T8_C11R2_5-95_3_12.tiff,C2_T8_C11R2_5-95_3_12,21,5
C2,T8,C11R2,3,13,95,5,transtivity-C2/pairs/C2_T8_C11R2_5-95_3_13.tiff,C2_T8_C11R2_5-95_3_13,37,5
C2,T8,C11R2,3,2,95,5,transtivity-C2/pairs/C2_T8_C11R2_5-95_3_2.tiff,C2_T8_C11R2_5-95_3_2,14,5
C2,T8,C11R2,3,3,95,5,transtivity-C2/pairs/C2_T8_C11R2_5-95_3_3.tiff,C2_T8_C11R2_5-95_3_3,40,5
C2,T8,C11R2,3,4,95,5,transtivity-C2/pairs/C2_T8_C11R2_5-95_3_4.tiff,C2_T8_C11R2_5-95_3_4,68,5
C2,T8,C11R2,3,5,95,5,transtivity-C2/pairs/C2_T8_C11R2_5-95_3_5.tiff,C2_T8_C11R2_5-95_3_5,38,5
C2,T8,C11R2,3,6,95,5,transtivity-C2/pairs/C2_T8_C11R2_5-95_3_6.tiff,C2_T8_C11R2_5-95_3_6,68,5
C2,T8,C11R2,3,7,95,5,transtivity-C2/pairs/C2_T8_C11R2_5-95_3_7.tiff,C2_T8_C11R2_5-95_3_7,13,5
C2,T8,C11R2,3,8,95,5,transtivity-C2/pairs/C2_T8_C11R2_5-95_3_8.tiff,C2_T8_C11R2_5-95_3_8,13,5
C2,T8,C11R2,3,9,95,5,transtivity-C2/pairs/C2_T8_C11R2_5-95_3_9.tiff,C2_T8_C11R2_5-95_3_9,39,5
C2,T8,C11R2,4,1,95,5,transtivity-C2/pairs/C2_T8_C11R2_5-95_4_1.tiff,C2_T8_C11R2_5-95_4_1,121,5
C2,T8,C11R2,4,10,95,5,transtivity-C2/pairs/C2_T8_C11R2_5-95_4_10.tiff,C2_T8_C11R2_5-95_4_10,72,5
C2,T8,C11R2,4,11,95,5,transtivity-C2/pairs/C2_T8_C11R2_5-95_4_11.tiff,C2_T8_C11R2_5-95_4_11,105,5
C2,T8,C11R2,4,12,95,5,transtivity-C2/pairs/C2_T8_C11R2_5-95_4_12.tiff,C2_T8_C11R2_5-95_4_12,108,5
C2,T8,C11R2,4,13,95,5,transtivity-C2/pairs/C2_T8_C11R2_5-95_4_13.tiff,C2_T8_C11R2_5-95_4_13,117,5
C2,T8,C11R2,4,2,95,5,transtivity-C2/pairs/C2_T8_C11R2_5-95_4_2.tiff,C2_T8_C11R2_5-95_4_2,101,5
C2,T8,C11R2,4,3,95,5,transtivity-C2/pairs/C2_T8_C11R2_5-95_4_3.tiff,C2_T8_C11R2_5-95_4_3,134,5
C2,T8,C11R2,4,4,95,5,transtivity-C2/pairs/C2_T8_C11R2_5-95_4_4.tiff,C2_T8_C11R2_5-95_4_4,64,5
C2,T8,C11R2,4,5,95,5,transtivity-C2/pairs/C2_T8_C11R2_5-95_4_5.tiff,C2_T8_C11R2_5-95_4_5,113,5
C2,T8,C11R2,4,6,95,5,transtivity-C2/pairs/C2_T8_C11R2_5-95_4_6.tiff,C2_T8_C11R2_5-95_4_6,87,5
C2,T8,C11R2,4,7,95,5,transtivity-C2/pairs/C2_T8_C11R2_5-95_4_7.tiff,C2_T8_C11R2_5-95_4_7,103,5
C2,T8,C11R2,4,8,95,5,transtivity-C2/pairs/C2_T8_C11R2_5-95_4_8.tiff,C2_T8_C11R2_5-95_4_8,107,5
C2,T8,C11R2,4,9,95,5,transtivity-C2/pairs/C2_T8_C11R2_5-95_4_9.tiff,C2_T8_C11R2_5-95_4_9,149,5
C2,T8,C11R2,5,1,95,5,transtivity-C2/pairs/C2_T8_C11R2_5-95_5_1.tiff,C2_T8_C11R2_5-95_5_1,48,5
C2,T8,C11R2,5,10,95,5,transtivity-C2/pairs/C2_T8_C11R2_5-95_5_10.tiff,C2_T8_C11R2_5-95_5_10,70,5
C2,T8,C11R2,5,11,95,5,transtivity-C2/pairs/C2_T8_C11R2_5-95_5_11.tiff,C2_T8_C11R2_5-95_5_11,50,5
C2,T8,C11R2,5,12,95,5,transtivity-C2/pairs/C2_T8_C11R2_5-95_5_12.tiff,C2_T8_C11R2_5-95_5_12,58,5
C2,T8,C11R2,5,13,95,5,transtivity-C2/pairs/C2_T8_C11R2_5-95_5_13.tiff,C2_T8_C11R2_5-95_5_13,82,5
C2,T8,C11R2,5,2,95,5,transtivity-C2/pairs/C2_T8_C11R2_5-95_5_2.tiff,C2_T8_C11R2_5-95_5_2,30,5
C2,T8,C11R2,5,3,95,5,transtivity-C2/pairs/C2_T8_C11R2_5-95_5_3.tiff,C2_T8_C11R2_5-95_5_3,42,5
C2,T8,C11R2,5,4,95,5,transtivity-C2/pairs/C2_T8_C11R2_5-95_5_4.tiff,C2_T8_C11R2_5-95_5_4,115,5
C2,T8,C11R2,5,5,95,5,transtivity-C2/pairs/C2_T8_C11R2_5-95_5_5.tiff,C2_T8_C11R2_5-95_5_5,45,5
C2,T8,C11R2,5,6,95,5,transtivity-C2/pairs/C2_T8_C11R2_5-95_5_6.tiff,C2_T8_C11R2_5-95_5_6,64,5
C2,T8,C11R2,5,7,95,5,transtivity-C2/pairs/C2_T8_C11R2_5-95_5_7.tiff,C2_T8_C11R2_5-95_5_7,55,5
C2,T8,C11R2,5,8,95,5,transtivity-C2/pairs/C2_T8_C11R2_5-95_5_8.tiff,C2_T8_C11R2_5-95_5_8,33,5
C2,T8,C11R2,5,9,95,5,transtivity-C2/pairs/C2_T8_C11R2_5-95_5_9.tiff,C2_T8_C11R2_5-95_5_9,39,5
C2,T8,C11R2,6,1,95,5,transtivity-C2/pairs/C2_T8_C11R2_5-95_6_1.tiff,C2_T8_C11R2_5-95_6_1,125,5
C2,T8,C11R2,6,10,95,5,transtivity-C2/pairs/C2_T8_C11R2_5-95_6_10.tiff,C2_T8_C11R2_5-95_6_10,113,5
C2,T8,C11R2,6,11,95,5,transtivity-C2/pairs/C2_T8_C11R2_5-95_6_11.tiff,C2_T8_C11R2_5-95_6_11,51,5
C2,T8,C11R2,6,12,95,5,transtivity-C2/pairs/C2_T8_C11R2_5-95_6_12.tiff,C2_T8_C11R2_5-95_6_12,107,5
C2,T8,C11R2,6,13,95,5,transtivity-C2/pairs/C2_T8_C11R2_5-95_6_13.tiff,C2_T8_C11R2_5-95_6_13,118,5
C2,T8,C11R2,6,2,95,5,transtivity-C2/pairs/C2_T8_C11R2_5-95_6_2.tiff,C2_T8_C11R2_5-95_6_2,101,5
C2,T8,C11R2,6,3,95,5,transtivity-C2/pairs/C2_T8_C11R2_5-95_6_3.tiff,C2_T8_C11R2_5-95_6_3,126,5
C2,T8,C11R2,6,4,95,5,transtivity-C2/pairs/C2_T8_C11R2_5-95_6_4.tiff,C2_T8_C11R2_5-95_6_4,105,5
C2,T8,C11R2,6,5,95,5,transtivity-C2/pairs/C2_T8_C11R2_5-95_6_5.tiff,C2_T8_C11R2_5-95_6_5,108,5
C2,T8,C11R2,6,6,95,5,transtivity-C2/pairs/C2_T8_C11R2_5-95_6_6.tiff,C2_T8_C11R2_5-95_6_6,87,5
C2,T8,C11R2,6,7,95,5,transtivity-C2/pairs/C2_T8_C11R2_5-95_6_7.tiff,C2_T8_C11R2_5-95_6_7,118,5
C2,T8,C11R2,6,8,95,5,transtivity-C2/pairs/C2_T8_C11R2_5-95_6_8.tiff,C2_T8_C11R2_5-95_6_8,114,5
C2,T8,C11R2,6,9,95,5,transtivity-C2/pairs/C2_T8_C11R2_5-95_6_9.tiff,C2_T8_C11R2_5-95_6_9,70,5
C2,T8,C11R2,7,1,95,5,transtivity-C2/pairs/C2_T8_C11R2_5-95_7_1.tiff,C2_T8_C11R2_5-95_7_1,98,5
C2,T8,C11R2,7,10,95,5,transtivity-C2/pairs/C2_T8_C11R2_5-95_7_10.tiff,C2_T8_C11R2_5-95_7_10,34,5
C2,T8,C11R2,7,11,95,5,transtivity-C2/pairs/C2_T8_C11R2_5-95_7_11.tiff,C2_T8_C11R2_5-95_7_11,56,5
C2,T8,C11R2,7,12,95,5,transtivity-C2/pairs/C2_T8_C11R2_5-95_7_12.tiff,C2_T8_C11R2_5-95_7_12,24,5
C2,T8,C11R2,7,13,95,5,transtivity-C2/pairs/C2_T8_C11R2_5-95_7_13.tiff,C2_T8_C11R2_5-95_7_13,31,5
C2,T8,C11R2,7,2,95,5,transtivity-C2/pairs/C2_T8_C11R2_5-95_7_2.tiff,C2_T8_C11R2_5-95_7_2,22,5
C2,T8,C11R2,7,3,95,5,transtivity-C2/pairs/C2_T8_C11R2_5-95_7_3.tiff,C2_T8_C11R2_5-95_7_3,55,5
C2,T8,C11R2,7,4,95,5,transtivity-C2/pairs/C2_T8_C11R2_5-95_7_4.tiff,C2_T8_C11R2_5-95_7_4,118,5
C2,T8,C11R2,7,5,95,5,transtivity-C2/pairs/C2_T8_C11R2_5-95_7_5.tiff,C2_T8_C11R2_5-95_7_5,47,5
C2,T8,C11R2,7,6,95,5,transtivity-C2/pairs/C2_T8_C11R2_5-95_7_6.tiff,C2_T8_C11R2_5-95_7_6,99,5
C2,T8,C11R2,7,7,95,5,transtivity-C2/pairs/C2_T8_C11R2_5-95_7_7.tiff,C2_T8_C11R2_5-95_7_7,21,5
C2,T8,C11R2,7,8,95,5,transtivity-C2/pairs/C2_T8_C11R2_5-95_7_8.tiff,C2_T8_C11R2_5-95_7_8,15,5
C2,T8,C11R2,7,9,95,5,transtivity-C2/pairs/C2_T8_C11R2_5-95_7_9.tiff,C2_T8_C11R2_5-95_7_9,33,5
C2,T8,C11R2,8,1,95,5,transtivity-C2/pairs/C2_T8_C11R2_5-95_8_1.tiff,C2_T8_C11R2_5-95_8_1,51,5
C2,T8,C11R2,8,10,95,5,transtivity-C2/pairs/C2_T8_C11R2_5-95_8_10.tiff,C2_T8_C11R2_5-95_8_10,145,2
C2,T8,C11R2,8,11,95,5,transtivity-C2/pairs/C2_T8_C11R2_5-95_8_11.tiff,C2_T8_C11R2_5-95_8_11,51,5
C2,T8,C11R2,8,12,95,5,transtivity-C2/pairs/C2_T8_C11R2_5-95_8_12.tiff,C2_T8_C11R2_5-95_8_12,29,5
C2,T8,C11R2,8,13,95,5,transtivity-C2/pairs/C2_T8_C11R2_5-95_8_13.tiff,C2_T8_C11R2_5-95_8_13,247,2
C2,T8,C11R2,8,2,95,5,transtivity-C2/pairs/C2_T8_C11R2_5-95_8_2.tiff,C2_T8_C11R2_5-95_8_2,213,2
C2,T8,C11R2,8,3,95,5,transtivity-C2/pairs/C2_T8_C11R2_5-95_8_3.tiff,C2_T8_C11R2_5-95_8_3,68,5
C2,T8,C11R2,8,4,95,5,transtivity-C2/pairs/C2_T8_C11R2_5-95_8_4.tiff,C2_T8_C11R2_5-95_8_4,90,5
C2,T8,C11R2,8,5,95,5,transtivity-C2/pairs/C2_T8_C11R2_5-95_8_5.tiff,C2_T8_C11R2_5-95_8_5,41,5
C2,T8,C11R2,8,6,95,5,transtivity-C2/pairs/C2_T8_C11R2_5-95_8_6.tiff,C2_T8_C11R2_5-95_8_6,133,5
C2,T8,C11R2,8,7,95,5,transtivity-C2/pairs/C2_T8_C11R2_5-95_8_7.tiff,C2_T8_C11R2_5-95_8_7,14,5
C2,T8,C11R2,8,8,95,5,transtivity-C2/pairs/C2_T8_C11R2_5-95_8_8.tiff,C2_T8_C11R2_5-95_8_8,249,2
C2,T8,C11R2,8,9,95,5,transtivity-C2/pairs/C2_T8_C11R2_5-95_8_9.tiff,C2_T8_C11R2_5-95_8_9,191,2
C2,T8,C11R2,9,1,95,5,transtivity-C2/pairs/C2_T8_C11R2_5-95_9_1.tiff,C2_T8_C11R2_5-95_9_1,49,5
C2,T8,C11R2,9,10,95,5,transtivity-C2/pairs/C2_T8_C11R2_5-95_9_10.tiff,C2_T8_C11R2_5-95_9_10,499,5
C2,T8,C11R2,9,11,95,5,transtivity-C2/pairs/C2_T8_C11R2_5-95_9_11.tiff,C2_T8_C11R2_5-95_9_11,48,5
C2,T8,C11R2,9,12,95,5,transtivity-C2/pairs/C2_T8_C11R2_5-95_9_12.tiff,C2_T8_C11R2_5-95_9_12,26,5
C2,T8,C11R2,9,13,95,5,transtivity-C2/pairs/C2_T8_C11R2_5-95_9_13.tiff,C2_T8_C11R2_5-95_9_13,1,2
C2,T8,C11R2,9,2,95,5,transtivity-C2/pairs/C2_T8_C11R2_5-95_9_2.tiff,C2_T8_C11R2_5-95_9_2,290,2
C2,T8,C11R2,9,3,95,5,transtivity-C2/pairs/C2_T8_C11R2_5-95_9_3.tiff,C2_T8_C11R2_5-95_9_3,43,5
C2,T8,C11R2,9,4,95,5,transtivity-C2/pairs/C2_T8_C11R2_5-95_9_4.tiff,C2_T8_C11R2_5-95_9_4,80,5
C2,T8,C11R2,9,5,95,5,transtivity-C2/pairs/C2_T8_C11R2_5-95_9_5.tiff,C2_T8_C11R2_5-95_9_5,53,5
C2,T8,C11R2,9,6,95,5,transtivity-C2/pairs/C2_T8_C11R2_5-95_9_6.tiff,C2_T8_C11R2_5-95_9_6,141,5
C2,T8,C11R2,9,7,95,5,transtivity-C2/pairs/C2_T8_C11R2_5-95_9_7.tiff,C2_T8_C11R2_5-95_9_7,33,5
C2,T8,C11R2,9,8,95,5,transtivity-C2/pairs/C2_T8_C11R2_5-95_9_8.tiff,C2_T8_C11R2_5-95_9_8,151,2
C2,T8,C11R2,9,9,95,5,transtivity-C2/pairs/C2_T8_C11R2_5-95_9_9.tiff,C2_T8_C11R2_5-95_9_9,1,2
C2,T8,C11R2,1,1,50,50,transtivity-C2/pairs/C2_T8_C11R2_50-50_1_1.tiff,C2_T8_C11R2_50-50_1_1,52,5
C2,T8,C11R2,1,10,50,50,transtivity-C2/pairs/C2_T8_C11R2_50-50_1_10.tiff,C2_T8_C11R2_50-50_1_10,41,5
C2,T8,C11R2,1,11,50,50,transtivity-C2/pairs/C2_T8_C11R2_50-50_1_11.tiff,C2_T8_C11R2_50-50_1_11,81,5
C2,T8,C11R2,1,12,50,50,transtivity-C2/pairs/C2_T8_C11R2_50-50_1_12.tiff,C2_T8_C11R2_50-50_1_12,45,5
C2,T8,C11R2,1,13,50,50,transtivity-C2/pairs/C2_T8_C11R2_50-50_1_13.tiff,C2_T8_C11R2_50-50_1_13,54,5
C2,T8,C11R2,1,2,50,50,transtivity-C2/pairs/C2_T8_C11R2_50-50_1_2.tiff,C2_T8_C11R2_50-50_1_2,148,5
C2,T8,C11R2,1,3,50,50,transtivity-C2/pairs/C2_T8_C11R2_50-50_1_3.tiff,C2_T8_C11R2_50-50_1_3,68,5
C2,T8,C11R2,1,4,50,50,transtivity-C2/pairs/C2_T8_C11R2_50-50_1_4.tiff,C2_T8_C11R2_50-50_1_4,106,5
C2,T8,C11R2,1,5,50,50,transtivity-C2/pairs/C2_T8_C11R2_50-50_1_5.tiff,C2_T8_C11R2_50-50_1_5,27,5
C2,T8,C11R2,1,6,50,50,transtivity-C2/pairs/C2_T8_C11R2_50-50_1_6.tiff,C2_T8_C11R2_50-50_1_6,68,5
C2,T8,C11R2,1,7,50,50,transtivity-C2/pairs/C2_T8_C11R2_50-50_1_7.tiff,C2_T8_C11R2_50-50_1_7,54,5
C2,T8,C11R2,1,8,50,50,transtivity-C2/pairs/C2_T8_C11R2_50-50_1_8.tiff,C2_T8_C11R2_50-50_1_8,83,5
C2,T8,C11R2,1,9,50,50,transtivity-C2/pairs/C2_T8_C11R2_50-50_1_9.tiff,C2_T8_C11R2_50-50_1_9,30,5
C2,T8,C11R2,10,10,50,50,transtivity-C2/pairs/C2_T8_C11R2_50-50_10_10.tiff,C2_T8_C11R2_50-50_10_10,94,2
C2,T8,C11R2,10,11,50,50,transtivity-C2/pairs/C2_T8_C11R2_50-50_10_11.tiff,C2_T8_C11R2_50-50_10_11,45,5
C2,T8,C11R2,10,12,50,50,transtivity-C2/pairs/C2_T8_C11R2_50-50_10_12.tiff,C2_T8_C11R2_50-50_10_12,21,5
C2,T8,C11R2,10,13,50,50,transtivity-C2/pairs/C2_T8_C11R2_50-50_10_13.tiff,C2_T8_C11R2_50-50_10_13,187,2
C2,T8,C11R2,11,11,50,50,transtivity-C2/pairs/C2_T8_C11R2_50-50_11_11.tiff,C2_T8_C11R2_50-50_11_11,39,5
C2,T8,C11R2,11,12,50,50,transtivity-C2/pairs/C2_T8_C11R2_50-50_11_12.tiff,C2_T8_C11R2_50-50_11_12,40,5
C2,T8,C11R2,11,13,50,50,transtivity-C2/pairs/C2_T8_C11R2_50-50_11_13.tiff,C2_T8_C11R2_50-50_11_13,31,5
C2,T8,C11R2,12,12,50,50,transtivity-C2/pairs/C2_T8_C11R2_50-50_12_12.tiff,C2_T8_C11R2_50-50_12_12,27,5
C2,T8,C11R2,12,13,50,50,transtivity-C2/pairs/C2_T8_C11R2_50-50_12_13.tiff,C2_T8_C11R2_50-50_12_13,35,5
C2,T8,C11R2,13,13,50,50,transtivity-C2/pairs/C2_T8_C11R2_50-50_13_13.tiff,C2_T8_C11R2_50-50_13_13,-1,5
C2,T8,C11R2,2,10,50,50,transtivity-C2/pairs/C2_T8_C11R2_50-50_2_10.tiff,C2_T8_C11R2_50-50_2_10,0,5
C2,T8,C11R2,2,11,50,50,transtivity-C2/pairs/C2_T8_C11R2_50-50_2_11.tiff,C2_T8_C11R2_50-50_2_11,66,5
C2,T8,C11R2,2,12,50,50,transtivity-C2/pairs/C2_T8_C11R2_50-50_2_12.tiff,C2_T8_C11R2_50-50_2_12,15,5
C2,T8,C11R2,2,13,50,50,transtivity-C2/pairs/C2_T8_C11R2_50-50_2_13.tiff,C2_T8_C11R2_50-50_2_13,1,5
C2,T8,C11R2,2,2,50,50,transtivity-C2/pairs/C2_T8_C11R2_50-50_2_2.tiff,C2_T8_C11R2_50-50_2_2,299,2
C2,T8,C11R2,2,3,50,50,transtivity-C2/pairs/C2_T8_C11R2_50-50_2_3.tiff,C2_T8_C11R2_50-50_2_3,13,5
C2,T8,C11R2,2,4,50,50,transtivity-C2/pairs/C2_T8_C11R2_50-50_2_4.tiff,C2_T8_C11R2_50-50_2_4,134,5
C2,T8,C11R2,2,5,50,50,transtivity-C2/pairs/C2_T8_C11R2_50-50_2_5.tiff,C2_T8_C11R2_50-50_2_5,27,5
C2,T8,C11R2,2,6,50,50,transtivity-C2/pairs/C2_T8_C11R2_50-50_2_6.tiff,C2_T8_C11R2_50-50_2_6,95,5
C2,T8,C11R2,2,7,50,50,transtivity-C2/pairs/C2_T8_C11R2_50-50_2_7.tiff,C2_T8_C11R2_50-50_2_7,7,5
C2,T8,C11R2,2,8,50,50,transtivity-C2/pairs/C2_T8_C11R2_50-50_2_8.tiff,C2_T8_C11R2_50-50_2_8,259,2
C2,T8,C11R2,2,9,50,50,transtivity-C2/pairs/C2_T8_C11R2_50-50_2_9.tiff,C2_T8_C11R2_50-50_2_9,3,5
C2,T8,C11R2,3,10,50,50,transtivity-C2/pairs/C2_T8_C11R2_50-50_3_10.tiff,C2_T8_C11R2_50-50_3_10,19,5
C2,T8,C11R2,3,11,50,50,transtivity-C2/pairs/C2_T8_C11R2_50-50_3_11.tiff,C2_T8_C11R2_50-50_3_11,57,5
C2,T8,C11R2,3,12,50,50,transtivity-C2/pairs/C2_T8_C11R2_50-50_3_12.tiff,C2_T8_C11R2_50-50_3_12,23,5
C2,T8,C11R2,3,13,50,50,transtivity-C2/pairs/C2_T8_C11R2_50-50_3_13.tiff,C2_T8_C11R2_50-50_3_13,29,5
C2,T8,C11R2,3,3,50,50,transtivity-C2/pairs/C2_T8_C11R2_50-50_3_3.tiff,C2_T8_C11R2_50-50_3_3,30,5
C2,T8,C11R2,3,4,50,50,transtivity-C2/pairs/C2_T8_C11R2_50-50_3_4.tiff,C2_T8_C11R2_50-50_3_4,96,5
C2,T8,C11R2,3,5,50,50,transtivity-C2/pairs/C2_T8_C11R2_50-50_3_5.tiff,C2_T8_C11R2_50-50_3_5,52,5
C2,T8,C11R2,3,6,50,50,transtivity-C2/pairs/C2_T8_C11R2_50-50_3_6.tiff,C2_T8_C11R2_50-50_3_6,88,5
C2,T8,C11R2,3,7,50,50,transtivity-C2/pairs/C2_T8_C11R2_50-50_3_7.tiff,C2_T8_C11R2_50-50_3_7,17,5
C2,T8,C11R2,3,8,50,50,transtivity-C2/pairs/C2_T8_C11R2_50-50_3_8.tiff,C2_T8_C11R2_50-50_3_8,33,5
C2,T8,C11R2,3,9,50,50,transtivity-C2/pairs/C2_T8_C11R2_50-50_3_9.tiff,C2_T8_C11R2_50-50_3_9,33,5
C2,T8,C11R2,4,10,50,50,transtivity-C2/pairs/C2_T8_C11R2_50-50_4_10.tiff,C2_T8_C11R2_50-50_4_10,79,5
C2,T8,C11R2,4,11,50,50,transtivity-C2/pairs/C2_T8_C11R2_50-50_4_11.tiff,C2_T8_C11R2_50-50_4_11,68,5
C2,T8,C11R2,4,12,50,50,transtivity-C2/pairs/C2_T8_C11R2_50-50_4_12.tiff,C2_T8_C11R2_50-50_4_12,101,5
C2,T8,C11R2,4,13,50,50,transtivity-C2/pairs/C2_T8_C11R2_50-50_4_13.tiff,C2_T8_C11R2_50-50_4_13,114,5
C2,T8,C11R2,4,4,50,50,transtivity-C2/pairs/C2_T8_C11R2_50-50_4_4.tiff,C2_T8_C11R2_50-50_4_4,99,5
C2,T8,C11R2,4,5,50,50,transtivity-C2/pairs/C2_T8_C11R2_50-50_4_5.tiff,C2_T8_C11R2_50-50_4_5,56,5
C2,T8,C11R2,4,6,50,50,transtivity-C2/pairs/C2_T8_C11R2_50-50_4_6.tiff,C2_T8_C11R2_50-50_4_6,128,5
C2,T8,C11R2,4,7,50,50,transtivity-C2/pairs/C2_T8_C11R2_50-50_4_7.tiff,C2_T8_C11R2_50-50_4_7,83,5
C2,T8,C11R2,4,8,50,50,transtivity-C2/pairs/C2_T8_C11R2_50-50_4_8.tiff,C2_T8_C11R2_50-50_4_8,110,5
C2,T8,C11R2,4,9,50,50,transtivity-C2/pairs/C2_T8_C11R2_50-50_4_9.tiff,C2_T8_C11R2_50-50_4_9,82,5
C2,T8,C11R2,5,10,50,50,transtivity-C2/pairs/C2_T8_C11R2_50-50_5_10.tiff,C2_T8_C11R2_50-50_5_10,50,5
C2,T8,C11R2,5,11,50,50,transtivity-C2/pairs/C2_T8_C11R2_50-50_5_11.tiff,C2_T8_C11R2_50-50_5_11,57,5
C2,T8,C11R2,5,12,50,50,transtivity-C2/pairs/C2_T8_C11R2_50-50_5_12.tiff,C2_T8_C11R2_50-50_5_12,112,5
C2,T8,C11R2,5,13,50,50,transtivity-C2/pairs/C2_T8_C11R2_50-50_5_13.tiff,C2_T8_C11R2_50-50_5_13,63,5
C2,T8,C11R2,5,5,50,50,transtivity-C2/pairs/C2_T8_C11R2_50-50_5_5.tiff,C2_T8_C11R2_50-50_5_5,2,5
C2,T8,C11R2,5,6,50,50,transtivity-C2/pairs/C2_T8_C11R2_50-50_5_6.tiff,C2_T8_C11R2_50-50_5_6,82,5
C2,T8,C11R2,5,7,50,50,transtivity-C2/pairs/C2_T8_C11R2_50-50_5_7.tiff,C2_T8_C11R2_50-50_5_7,41,5
C2,T8,C11R2,5,8,50,50,transtivity-C2/pairs/C2_T8_C11R2_50-50_5_8.tiff,C2_T8_C11R2_50-50_5_8,68,5
C2,T8,C11R2,5,9,50,50,transtivity-C2/pairs/C2_T8_C11R2_50-50_5_9.tiff,C2_T8_C11R2_50-50_5_9,41,5
C2,T8,C11R2,6,10,50,50,transtivity-C2/pairs/C2_T8_C11R2_50-50_6_10.tiff,C2_T8_C11R2_50-50_6_10,127,5
C2,T8,C11R2,6,11,50,50,transtivity-C2/pairs/C2_T8_C11R2_50-50_6_11.tiff,C2_T8_C11R2_50-50_6_11,65,5
C2,T8,C11R2,6,12,50,50,transtivity-C2/pairs/C2_T8_C11R2_50-50_6_12.tiff,C2_T8_C11R2_50-50_6_12,131,5
C2,T8,C11R2,6,13,50,50,transtivity-C2/pairs/C2_T8_C11R2_50-50_6_13.tiff,C2_T8_C11R2_50-50_6_13,84,5
C2,T8,C11R2,6,6,50,50,transtivity-C2/pairs/C2_T8_C11R2_50-50_6_6.tiff,C2_T8_C11R2_50-50_6_6,117,5
C2,T8,C11R2,6,7,50,50,transtivity-C2/pairs/C2_T8_C11R2_50-50_6_7.tiff,C2_T8_C11R2_50-50_6_7,60,5
C2,T8,C11R2,6,8,50,50,transtivity-C2/pairs/C2_T8_C11R2_50-50_6_8.tiff,C2_T8_C11R2_50-50_6_8,96,5
C2,T8,C11R2,6,9,50,50,transtivity-C2/pairs/C2_T8_C11R2_50-50_6_9.tiff,C2_T8_C11R2_50-50_6_9,96,5
C2,T8,C11R2,7,10,50,50,transtivity-C2/pairs/C2_T8_C11R2_50-50_7_10.tiff,C2_T8_C11R2_50-50_7_10,34,5
C2,T8,C11R2,7,11,50,50,transtivity-C2/pairs/C2_T8_C11R2_50-50_7_11.tiff,C2_T8_C11R2_50-50_7_11,86,5
C2,T8,C11R2,7,12,50,50,transtivity-C2/pairs/C2_T8_C11R2_50-50_7_12.tiff,C2_T8_C11R2_50-50_7_12,16,5
C2,T8,C11R2,7,13,50,50,transtivity-C2/pairs/C2_T8_C11R2_50-50_7_13.tiff,C2_T8_C11R2_50-50_7_13,46,5
C2,T8,C11R2,7,7,50,50,transtivity-C2/pairs/C2_T8_C11R2_50-50_7_7.tiff,C2_T8_C11R2_50-50_7_7,23,5
C2,T8,C11R2,7,8,50,50,transtivity-C2/pairs/C2_T8_C11R2_50-50_7_8.tiff,C2_T8_C11R2_50-50_7_8,33,5
C2,T8,C11R2,7,9,50,50,transtivity-C2/pairs/C2_T8_C11R2_50-50_7_9.tiff,C2_T8_C11R2_50-50_7_9,31,5
C2,T8,C11R2,8,10,50,50,transtivity-C2/pairs/C2_T8_C11R2_50-50_8_10.tiff,C2_T8_C11R2_50-50_8_10,86,2
C2,T8,C11R2,8,11,50,50,transtivity-C2/pairs/C2_T8_C11R2_50-50_8_11.tiff,C2_T8_C11R2_50-50_8_11,81,5
C2,T8,C11R2,8,12,50,50,transtivity-C2/pairs/C2_T8_C11R2_50-50_8_12.tiff,C2_T8_C11R2_50-50_8_12,22,5
C2,T8,C11R2,8,13,50,50,transtivity-C2/pairs/C2_T8_C11R2_50-50_8_13.tiff,C2_T8_C11R2_50-50_8_13,245,2
C2,T8,C11R2,8,8,50,50,transtivity-C2/pairs/C2_T8_C11R2_50-50_8_8.tiff,C2_T8_C11R2_50-50_8_8,312,2
C2,T8,C11R2,8,9,50,50,transtivity-C2/pairs/C2_T8_C11R2_50-50_8_9_-5.tiff,C2_T8_C11R2_50-50_8_9_-5,2,5
C2,T8,C11R2,8,9,50,50,transtivity-C2/pairs/C2_T8_C11R2_50-50_8_9.tiff,C2_T8_C11R2_50-50_8_9,155,2
C2,T8,C11R2,9,10,50,50,transtivity-C2/pairs/C2_T8_C11R2_50-50_9_10.tiff,C2_T8_C11R2_50-50_9_10,204,2
C2,T8,C11R2,9,11,50,50,transtivity-C2/pairs/C2_T8_C11R2_50-50_9_11.tiff,C2_T8_C11R2_50-50_9_11,53,5
C2,T8,C11R2,9,12,50,50,transtivity-C2/pairs/C2_T8_C11R2_50-50_9_12.tiff,C2_T8_C11R2_50-50_9_12,20,5
C2,T8,C11R2,9,13,50,50,transtivity-C2/pairs/C2_T8_C11R2_50-50_9_13.tiff,C2_T8_C11R2_50-50_9_13,3,2
C2,T8,C11R2,9,9,50,50,transtivity-C2/pairs/C2_T8_C11R2_50-50_9_9.tiff,C2_T8_C11R2_50-50_9_9,4,2
D,T8,C11R5,1,1,monoculture,monoculture,transtivity-D/pairs/D_T8_C11R5_1.tiff,D_T8_C11R5_1,46,5
D,T8,C11R5,2,2,monoculture,monoculture,transtivity-D/pairs/D_T8_C11R5_2.tiff,D_T8_C11R5_2,125,5
D,T8,C11R5,3,3,monoculture,monoculture,transtivity-D/pairs/D_T8_C11R5_3.tiff,D_T8_C11R5_3,60,5
D,T8,C11R5,4,4,monoculture,monoculture,transtivity-D/pairs/D_T8_C11R5_4.tiff,D_T8_C11R5_4,110,5
D,T8,C11R5,5,5,monoculture,monoculture,transtivity-D/pairs/D_T8_C11R5_5.tiff,D_T8_C11R5_5,5,5
D,T8,C11R5,1,1,95,5,transtivity-D/pairs/D_T8_C11R5_5-95_1_1.tiff,D_T8_C11R5_5-95_1_1,91,5
D,T8,C11R5,1,2,95,5,transtivity-D/pairs/D_T8_C11R5_5-95_1_2.tiff,D_T8_C11R5_5-95_1_2,134,5
D,T8,C11R5,1,3,95,5,transtivity-D/pairs/D_T8_C11R5_5-95_1_3.tiff,D_T8_C11R5_5-95_1_3,54,5
D,T8,C11R5,1,4,95,5,transtivity-D/pairs/D_T8_C11R5_5-95_1_4.tiff,D_T8_C11R5_5-95_1_4,138,5
D,T8,C11R5,1,5,95,5,transtivity-D/pairs/D_T8_C11R5_5-95_1_5.tiff,D_T8_C11R5_5-95_1_5,7,5
D,T8,C11R5,2,1,95,5,transtivity-D/pairs/D_T8_C11R5_5-95_2_1.tiff,D_T8_C11R5_5-95_2_1,118,5
D,T8,C11R5,2,2,95,5,transtivity-D/pairs/D_T8_C11R5_5-95_2_2.tiff,D_T8_C11R5_5-95_2_2,163,5
D,T8,C11R5,2,3,95,5,transtivity-D/pairs/D_T8_C11R5_5-95_2_3.tiff,D_T8_C11R5_5-95_2_3,106,5
D,T8,C11R5,2,4,95,5,transtivity-D/pairs/D_T8_C11R5_5-95_2_4.tiff,D_T8_C11R5_5-95_2_4,154,5
D,T8,C11R5,2,5,95,5,transtivity-D/pairs/D_T8_C11R5_5-95_2_5.tiff,D_T8_C11R5_5-95_2_5,159,5
D,T8,C11R5,3,1,95,5,transtivity-D/pairs/D_T8_C11R5_5-95_3_1.tiff,D_T8_C11R5_5-95_3_1,66,5
D,T8,C11R5,3,2,95,5,transtivity-D/pairs/D_T8_C11R5_5-95_3_2.tiff,D_T8_C11R5_5-95_3_2,137,5
D,T8,C11R5,3,3,95,5,transtivity-D/pairs/D_T8_C11R5_5-95_3_3.tiff,D_T8_C11R5_5-95_3_3,76,5
D,T8,C11R5,3,4,95,5,transtivity-D/pairs/D_T8_C11R5_5-95_3_4.tiff,D_T8_C11R5_5-95_3_4,90,5
D,T8,C11R5,3,5,95,5,transtivity-D/pairs/D_T8_C11R5_5-95_3_5.tiff,D_T8_C11R5_5-95_3_5,26,5
D,T8,C11R5,4,1,95,5,transtivity-D/pairs/D_T8_C11R5_5-95_4_1.tiff,D_T8_C11R5_5-95_4_1,136,5
D,T8,C11R5,4,2,95,5,transtivity-D/pairs/D_T8_C11R5_5-95_4_2.tiff,D_T8_C11R5_5-95_4_2,149,5
D,T8,C11R5,4,3,95,5,transtivity-D/pairs/D_T8_C11R5_5-95_4_3.tiff,D_T8_C11R5_5-95_4_3,81,5
D,T8,C11R5,4,4,95,5,transtivity-D/pairs/D_T8_C11R5_5-95_4_4.tiff,D_T8_C11R5_5-95_4_4,78,5
D,T8,C11R5,4,5,95,5,transtivity-D/pairs/D_T8_C11R5_5-95_4_5.tiff,D_T8_C11R5_5-95_4_5,145,5
D,T8,C11R5,5,1,95,5,transtivity-D/pairs/D_T8_C11R5_5-95_5_1.tiff,D_T8_C11R5_5-95_5_1,5,5
D,T8,C11R5,5,2,95,5,transtivity-D/pairs/D_T8_C11R5_5-95_5_2.tiff,D_T8_C11R5_5-95_5_2,51,5
D,T8,C11R5,5,3,95,5,transtivity-D/pairs/D_T8_C11R5_5-95_5_3.tiff,D_T8_C11R5_5-95_5_3,16,5
D,T8,C11R5,5,4,95,5,transtivity-D/pairs/D_T8_C11R5_5-95_5_4.tiff,D_T8_C11R5_5-95_5_4,31,5
D,T8,C11R5,5,5,95,5,transtivity-D/pairs/D_T8_C11R5_5-95_5_5.tiff,D_T8_C11R5_5-95_5_5,13,5
D,T8,C11R5,1,1,50,50,transtivity-D/pairs/D_T8_C11R5_50-50_1_1.tiff,D_T8_C11R5_50-50_1_1,40,5
D,T8,C11R5,1,2,50,50,transtivity-D/pairs/D_T8_C11R5_50-50_1_2.tiff,D_T8_C11R5_50-50_1_2,81,5
D,T8,C11R5,1,3,50,50,transtivity-D/pairs/D_T8_C11R5_50-50_1_3.tiff,D_T8_C11R5_50-50_1_3,87,5
D,T8,C11R5,1,4,50,50,transtivity-D/pairs/D_T8_C11R5_50-50_1_4.tiff,D_T8_C11R5_50-50_1_4,102,5
D,T8,C11R5,1,5,50,50,transtivity-D/pairs/D_T8_C11R5_50-50_1_5.tiff,D_T8_C11R5_50-50_1_5,24,5
D,T8,C11R5,2,2,50,50,transtivity-D/pairs/D_T8_C11R5_50-50_2_2.tiff,D_T8_C11R5_50-50_2_2,75,5
D,T8,C11R5,2,3,50,50,transtivity-D/pairs/D_T8_C11R5_50-50_2_3.tiff,D_T8_C11R5_50-50_2_3,108,5
D,T8,C11R5,2,4,50,50,transtivity-D/pairs/D_T8_C11R5_50-50_2_4.tiff,D_T8_C11R5_50-50_2_4,88,5
D,T8,C11R5,2,5,50,50,transtivity-D/pairs/D_T8_C11R5_50-50_2_5.tiff,D_T8_C11R5_50-50_2_5,95,5
D,T8,C11R5,3,3,50,50,transtivity-D/pairs/D_T8_C11R5_50-50_3_3.tiff,D_T8_C11R5_50-50_3_3,78,5
D,T8,C11R5,3,4,50,50,transtivity-D/pairs/D_T8_C11R5_50-50_3_4.tiff,D_T8_C11R5_50-50_3_4,101,5
D,T8,C11R5,3,5,50,50,transtivity-D/pairs/D_T8_C11R5_50-50_3_5.tiff,D_T8_C11R5_50-50_3_5,12,5
D,T8,C11R5,4,4,50,50,transtivity-D/pairs/D_T8_C11R5_50-50_4_4.tiff,D_T8_C11R5_50-50_4_4,125,5
D,T8,C11R5,4,5,50,50,transtivity-D/pairs/D_T8_C11R5_50-50_4_5.tiff,D_T8_C11R5_50-50_4_5,129,5
D,T8,C11R5,5,5,50,50,transtivity-D/pairs/D_T8_C11R5_50-50_5_5.tiff,D_T8_C11R5_50-50_5_5,-1,5